iata,name,city,state,country,latitude,longitude
4I7,Putnam County Airport,Greencastle,,USA,39.6335556,-86.8138056
C91,Dowagiac Municipal Airport,Dowagiac,,USA,41.9929342,-86.1280125
CDI,Cambridge Municipal Airport,Cambridge,,USA,39.9750278,-81.5775833
SUE,Door County Cherryland Airport,Sturgeon Bay,,USA,44.8436667,-87.4215556
0P2,Shoestring Aviation Airfield,Stewartstown,,USA,39.7948244,-76.6471914
PDT,Eastern Oregon Regional Airport,Pendleton,,USA,45.695,-118.841389
TYE,Tyonek Airport,Tyonek,,USA,61.076667,-151.138056
RIW,Riverton Regional,Riverton WY,,USA,43.064167,-108.459722
MTJ,Montrose Regional Airport,Montrose CO,,USA,38.509794,-107.894242
1CS,Clow International Airport,Bolingbrook,,USA,41.6959744,-88.1292306
ENW,Kenosha Regional Airport,Kenosha,,USA,42.5956944,-87.9278056
VGT,North Las Vegas Airport,Las Vegas,,USA,36.2106944,-115.1944444
,Brown County Airport,Georgetown,,USA,38.8819456,-83.8827367
C02,Grand Geneva Resort Airport,Lake Geneva,,USA,42.6149167,-88.3895833
DKB,De Kalb Taylor Municipal Airport,De Kalb,,USA,41.9338342,-88.7056864
LAF,Purude University Airport,Lafayette,,USA,40.4123056,-86.9368889
OXD,Miami University Airport,Oxford,,USA,39.5022607,-84.7843814
MIE,Delaware County Airport,Muncie,,USA,40.2424722,-85.39575
1RL,Point Roberts Airpark,Point Roberts,,USA,48.9797222,-123.0788889
MQB,Macomb Municipal Airport,Macomb,,USA,40.5200833,-90.6523889
AUW,Wausau Downtown Airport,Wausau,,USA,44.9262845,-89.6270018
C47,Portage Municipal Airport,Portage,,USA,43.5603136,-89.4828607
IWD,Gogebic Iron County Airport,Ironwood,,USA,46.5274747,-90.1313967
MCD,Mackinac Island Airport,Mackinac Island,,USA,45.8649344,-84.637344
GRM,Grand Marais Cook County Airport,Grand Marais,,USA,47.8383333,-90.3829444
NPZ,Porter County Municipal Airport,Valparaiso,,USA,41.4539722,-87.0070833
,Silverton,Silverton,,USA,37.812545,-107.662994
MXY,McCarthy Airport,McCarthy,,USA,61.4370608,-142.9030737
SWD,Seward Airport,Seward,,USA,60.1269383,-149.4188122
MGC,Michigan City Municipal Airport,Michigan City,,USA,41.7033,-86.8211
,East Glacier Park Amtrak Station,East Glacier,,USA,48.443965,-113.218556
AET,Allakaket Airport,Allakaket,,USA,66.5519,-152.6222
YAK,Yakutat,Yakutat,,USA,59.3012,-139.3937
MQT,Sawyer International Airport,Marquette,,USA,46.353611,-87.395278
IMT,Ford Airport,Iron Mountain,,USA,45.8183611,-88.1145556
ESC,Delta County Airport,Escanaba,,USA,45.722778,-87.093611
MWA,Williamson Country Regional Airport,Marion,,USA,37.7549569,-89.0110936
BTI,Barter Island Lrrs,Barter Island,,USA,70.133989,-143.581867
K03,Wainwright As,Fort Wainwright,,USA,70.613378,-159.86035
LUR,Cape Lisburne Lrrs,Cape Lisburne,,USA,68.875133,-166.110022
PIZ,Point Lay Lrrs,Point Lay,,USA,69.732875,-163.005342
ITO,Hilo Intl,Hilo,,USA,19.721375,-155.048469
ORL,Executive,Orlando,,USA,28.545464,-81.332936
BTT,Bettles,Bettles,,USA,66.913944,-151.529056
Z84,Clear,Clear Mews,,USA,64.301203,-149.120144
UTO,Indian Mountain Lrrs,Indian Mountains,,USA,65.992794,-153.704289
FYU,Fort Yukon,Fort Yukon,,USA,66.571492,-145.250417
SVW,Sparrevohn Lrrs,Sparrevohn,,USA,61.097369,-155.574228
FRN,Bryant Ahp,Fort Richardson,,USA,61.266381,-149.653119
TLJ,Tatalina Lrrs,Tatalina,,USA,62.894369,-155.976525
CZF,Cape Romanzof Lrrs,Cape Romanzof,,USA,61.780297,-166.038747
BED,Laurence G Hanscom Fld,Bedford,,USA,42.469953,-71.289031
SNP,St Paul Island,St. Paul Island,,USA,57.167333,-170.220444
EHM,Cape Newenham Lrrs,Cape Newenham,,USA,58.646428,-162.062778
PBV,St George,Point Barrow,,USA,56.578344,-169.661611
ILI,Iliamna,Iliamna,,USA,59.754356,-154.910961
PTU,Platinum,Port Moller,,USA,59.011356,-161.819664
BMX,Big Mountain Afs,Big Mountain,,USA,59.361247,-155.258822
OSC,Oscoda Wurtsmith,Oscoda,,USA,44.451558,-83.394053
OAR,Marina Muni,Fort Ord,,USA,36.681878,-121.762347
MHR,Sacramento Mather,Sacramento,,USA,38.553897,-121.297592
BYS,Bicycle Lake Aaf,Fort Irwin,,USA,35.280531,-116.630031
NXP,Twentynine Palms Eaf,Twenty Nine Palms,,USA,34.296161,-116.162203
FSM,Fort Smith Rgnl,Fort Smith,,USA,35.336583,-94.367444
MRI,Merrill Fld,Anchorage,,USA,61.213544,-149.844447
GNT,Grants Milan Muni,Grants,,USA,35.167286,-107.901989
PNC,Ponca City Rgnl,Ponca City,,USA,36.731958,-97.099781
SVN,Hunter Aaf,Hunter Aaf,,USA,32.01,-81.145683
GFK,Grand Forks Intl,Grand Forks,,USA,47.949256,-97.176111
PBF,Grider Fld,Pine Bluff,,USA,34.173142,-91.935597
NSE,Whiting Fld Nas North,Milton,,USA,30.724167,-87.021944
HNM,Hana,Hana,,USA,20.795636,-156.014439
PRC,Ernest A Love Fld,Prescott,,USA,34.654472,-112.419583
TTN,Trenton Mercer,Trenton,,USA,40.276692,-74.813469
BOS,General Edward Lawrence Logan Intl,Boston,MA,USA,42.364347,-71.005181
SUU,Travis Afb,Fairfield,,USA,38.262692,-121.927464
RME,Griffiss Afld,Rome,,USA,43.2338,-75.407033
ENV,Wendover,Wendover,,USA,40.718694,-114.030889
BFM,Mobile Downtown,Mobile,,USA,30.626783,-88.068092
OAK,Metropolitan Oakland Intl,Oakland,,USA,37.721278,-122.220722
OMA,Eppley Afld,Omaha,,USA,41.303167,-95.894069
NOW,Port Angeles Cgas,Port Angeles,,USA,48.141481,-123.414075
OGG,Kahului,Kahului,,USA,20.89865,-156.430458
ICT,Wichita Mid Continent,Wichita,,USA,37.649944,-97.433056
MCI,Kansas City Intl,Kansas City,MO,USA,39.297606,-94.713905
MSN,Dane Co Rgnl Truax Fld,Madison,,USA,43.139858,-89.337514
DLG,Dillingham,Dillingham,,USA,59.044667,-158.5055
HRO,Boone Co,Harrison,,USA,36.261519,-93.154728
PHX,Phoenix Sky Harbor Intl,Phoenix,AZ,USA,33.434278,-112.011583
BGR,Bangor Intl,Bangor,,USA,44.807444,-68.828139
FXE,Fort Lauderdale Executive,Fort Lauderdale,,USA,26.197281,-80.170706
GGG,East Texas Rgnl,Longview,,USA,32.384014,-94.711486
AND,Anderson Rgnl,Andersen,,USA,34.494583,-82.709389
GEG,Spokane Intl,Spokane,,USA,47.619861,-117.533833
HWO,North Perry,Hollywood,,USA,26.001222,-80.240722
SFO,San Francisco Intl,San Francisco,CA,USA,37.618972,-122.374889
CTB,Cut Bank Muni,Cutbank,,USA,48.608353,-112.376144
ARA,Acadiana Rgnl,Louisiana,,USA,30.037758,-91.883896
GNV,Gainesville Rgnl,Gainesville,,USA,29.690056,-82.271778
MEM,Memphis Intl,Memphis,TN,USA,35.042417,-89.976667
DUG,Bisbee Douglas Intl,Douglas,,USA,31.469028,-109.603667
BIG,Allen Aaf,Delta Junction,,USA,63.994547,-145.721642
CNW,Tstc Waco,Waco,,USA,31.637831,-97.074139
ANN,Annette Island,Annette Island,,USA,55.042436,-131.572233
CAR,Caribou Muni,Caribou,,USA,46.8715,-68.017917
LRF,Little Rock Afb,Jacksonville,,USA,34.916944,-92.149722
HUA,Redstone Aaf,Redstone,,USA,34.678653,-86.684781
POB,Pope Field,Fort Bragg,,USA,35.170883,-79.014472
DHT,Dalhart Muni,Dalhart,,USA,36.022586,-102.547278
DLF,Laughlin Afb,Del Rio,,USA,29.359486,-100.777975
LAX,Los Angeles Intl,Los Angeles,CA,USA,33.942536,-118.408075
ANB,Anniston Metro,Anniston,,USA,33.588167,-85.858111
CLE,Cleveland Hopkins Intl,Cleveland,OH,USA,41.411689,-81.849794
DOV,Dover Afb,Dover,,USA,39.129539,-75.465958
CVG,Cincinnati Northern Kentucky Intl,Cincinnati,KY,USA,39.048836,-84.667822
FME,Tipton,Fort Meade,,USA,39.085386,-76.759414
NID,China Lake Naws,China,,USA,35.685422,-117.692039
HON,Huron Rgnl,Huron,,USA,44.3852,-98.228542
JNU,Juneau Intl,Juneau,,USA,58.354972,-134.576278
LFT,Lafayette Rgnl,Lafayette,,USA,30.205278,-91.987611
EWR,Newark Liberty Intl,Newark,NJ,USA,40.6925,-74.168667
BOI,Boise Air Terminal,Boise,,USA,43.564361,-116.222861
INS,Creech Afb,Indian Springs,,USA,36.587183,-115.673353
GCK,Garden City Rgnl,Garden City,,USA,37.927528,-100.724417
MOT,Minot Intl,Minot,,USA,48.259378,-101.280333
HHI,Wheeler Aaf,Wahiawa,,USA,21.4835,-158.039667
MXF,Maxwell Afb,Montgomery,,USA,32.382944,-86.365778
RBM,Robinson Aaf,Robinson,,USA,34.850089,-92.300153
DAL,Dallas Love Fld,Dallas,TX,USA,32.847111,-96.851778
FCS,Butts Aaf,Fort Carson,,USA,38.678394,-104.756581
HLN,Helena Rgnl,Helena,,USA,46.606806,-111.98275
NKX,Miramar Mcas,Miramar,,USA,32.867694,-117.14175
LUF,Luke Afb,Phoenix,,USA,33.535,-112.38306
HRT,Hurlburt Fld,Mary Esther,,USA,30.427803,-86.689278
HHR,Jack Northrop Fld Hawthorne Muni,Hawthorne,,USA,33.922839,-118.335186
HUL,Houlton Intl,Houlton,,USA,46.123083,-67.792056
END,Vance Afb,Enid,,USA,36.339167,-97.9165
NTD,Point Mugu Nas,Point Mugu,,USA,34.120285,-119.12094
EDW,Edwards Afb,Edwards Afb,,USA,34.905417,-117.883739
LCH,Lake Charles Rgnl,Lake Charles,,USA,30.126112,-93.223335
KOA,Kona Intl At Keahole,Kona,,USA,19.738767,-156.045631
MYR,Myrtle Beach Intl,Myrtle Beach,,USA,33.67975,-78.928333
NLC,Lemoore Nas,Lemoore,,USA,36.333012,-119.95208
ACK,Nantucket Mem,Nantucket,,USA,41.253053,-70.060181
FAF,Felker Aaf,Fort Eustis,,USA,37.1325,-76.608841
HOP,Campbell Aaf,Hopkinsville,,USA,36.668567,-87.496183
DCA,Ronald Reagan Washington Natl,Washington,VA,USA,38.852083,-77.037722
NHK,Patuxent River Nas,Patuxent River,,USA,38.285981,-76.411781
PSX,Palacios Muni,Palacios,,USA,28.727508,-96.250958
BYH,Arkansas Intl,Blytheville,,USA,35.964347,-89.943956
ACY,Atlantic City Intl,Atlantic City,,USA,39.457583,-74.577167
TIK,Tinker Afb,Oklahoma City,,USA,35.414739,-97.386633
ECG,Elizabeth City Cgas Rgnl,Elizabeth City,,USA,36.260581,-76.174572
PUB,Pueblo Memorial,Pueblo,,USA,38.289085,-104.496572
PQI,Northern Maine Rgnl At Presque Isle,Presque Isle,,USA,46.688958,-68.044797
IKR,Kirtland Air Force Base,Kirtland A.f.b.,,USA,35.040222,-106.609194
GRF,Gray Aaf,Fort Lewis,,USA,47.079217,-122.580783
ADQ,Kodiak,Kodiak,,USA,57.749967,-152.493856
UPP,Upolu,Opolu,,USA,20.265256,-155.859989
FLL,Fort Lauderdale Hollywood Intl,Fort Lauderdale,FL,USA,26.072583,-80.15275
MKO,Davis Fld,Muskogee,,USA,35.656489,-95.366656
INL,Falls Intl,International Falls,,USA,48.566186,-93.403067
SLC,Salt Lake City Intl,Salt Lake City,UT,USA,40.788389,-111.977772
CDS,Childress Muni,Childress,,USA,34.433781,-100.287992
BIX,Keesler Afb,Biloxi,,USA,30.410425,-88.924433
LSF,Lawson Aaf,Fort Benning,,USA,32.337322,-84.991283
NQI,Kingsville Nas,Kingsville,,USA,27.507223,-97.809723
FRI,Marshall Aaf,Fort Riley,,USA,39.055275,-96.764453
MDT,Harrisburg Intl,Harrisburg,,USA,40.193494,-76.763403
LNK,Lincoln,Lincoln,,USA,40.850971,-96.75925
LAN,Capital City,Lansing,,USA,42.7787,-84.587357
MUE,Waimea Kohala,Kamuela,,USA,20.001328,-155.668108
MSS,Massena Intl Richards Fld,Massena,,USA,44.935833,-74.845547
HKY,Hickory Rgnl,Hickory,,USA,35.741147,-81.38955
SPG,Albert Whitted,St. Petersburg,,USA,27.765111,-82.626972
FMY,Page Fld,Fort Myers,,USA,26.586611,-81.86325
IAH,George Bush Intercontinental,Houston,TX,USA,29.984433,-95.341442
MLT,Millinocket Muni,Millinocket,,USA,45.647836,-68.685561
ADW,Andrews Afb,Camp Springs,,USA,38.810806,-76.867028
INT,Smith Reynolds,Winston-salem,,USA,36.133722,-80.222
VCV,Southern California Logistics,Victorville,,USA,34.597453,-117.382997
CEW,Bob Sikes,Crestview,,USA,30.778833,-86.522111
GTB,Wheeler Sack Aaf,Fort Drum,,USA,44.055619,-75.719458
PHN,St Clair Co Intl,Port Huron,,USA,42.910957,-82.528862
BFL,Meadows Fld,Bakersfield,,USA,35.433598,-119.05677
ELP,El Paso Intl,El Paso,,USA,31.80725,-106.377583
HRL,Valley Intl,Harlingen,,USA,26.2285,-97.654389
CAE,Columbia Metropolitan,Columbia,SC,USA,33.938833,-81.119528
DMA,Davis Monthan Afb,Tucson,,USA,32.166467,-110.883144
NPA,Pensacola Nas,Pensacola,,USA,30.352656,-87.318647
PNS,Pensacola Rgnl,Pensacola,,USA,30.473425,-87.186611
RDR,Grand Forks Afb,Red River,,USA,47.961098,-97.401194
HOU,William P Hobby,Houston,TX,USA,29.645419,-95.278889
BKF,Buckley Afb,Buckley,,USA,39.701668,-104.75166
ORT,Northway,Northway,,USA,62.961334,-141.929136
PAQ,Palmer Muni,Palmer,,USA,61.594914,-149.088711
PIT,Pittsburgh Intl,Pittsburgh,PA,USA,40.491467,-80.232872
BRW,Wiley Post Will Rogers Mem,Barrow,,USA,71.285446,-156.766003
EFD,Ellington Fld,Houston,,USA,29.607333,-95.15875
NUW,Whidbey Island Nas,Whidbey Island,,USA,48.351803,-122.655906
ALI,Alice Intl,Alice,,USA,27.740889,-98.026944
VAD,Moody Afb,Valdosta,,USA,30.967833,-83.193
MIA,Miami Intl,Miami,FL,USA,25.79325,-80.290556
SEA,Seattle Tacoma Intl,Seattle,WA,USA,47.449,-122.309306
CHA,Lovell Fld,Chattanooga,,USA,35.035278,-85.203808
BDR,Igor I Sikorsky Mem,Stratford,,USA,41.163472,-73.126167
JAN,Jackson Evers Intl,Jackson,,USA,32.311167,-90.075889
GLS,Scholes Intl At Galveston,Galveston,,USA,29.265322,-94.860406
LGB,Long Beach,Long Beach,,USA,33.817722,-118.151611
HDH,Dillingham,Dillingham,,USA,21.579475,-158.197281
IPT,Williamsport Rgnl,Williamsport,,USA,41.241836,-76.921094
IND,Indianapolis Intl,Indianapolis,IN,USA,39.717331,-86.294383
SZL,Whiteman Afb,Knobnoster,,USA,38.730306,-93.547864
AKC,Akron Fulton Intl,Akron,,USA,41.0375,-81.466917
GWO,Greenwood Leflore,Greenwood,,USA,33.494328,-90.084706
HPN,Westchester Co,White Plains,,USA,41.066959,-73.707575
FOK,Francis S Gabreski,West Hampton Beach,,USA,40.843656,-72.631789
JBR,Jonesboro Muni,Jonesboro,,USA,35.831708,-90.646417
TNX,Tonopah Test Range,Tonopah,,USA,37.798836,-116.78075
LNA,Palm Beach Co Park,West Palm Beach,,USA,26.593,-80.085056
NZY,North Island Nas,San Diego,,USA,32.699219,-117.21531
BIF,Biggs Aaf,El Paso,,USA,31.849528,-106.380039
YUM,Yuma Mcas Yuma Intl,Yuma,,USA,32.656578,-114.60598
CNM,Cavern City Air Terminal,Carlsbad,,USA,32.337472,-104.263278
DLH,Duluth Intl,Duluth,,USA,46.842091,-92.193649
BET,Bethel,Bethel,,USA,60.779778,-161.838
LOU,Bowman Fld,Louisville,,USA,38.228,-85.663722
FHU,Sierra Vista Muni Libby Aaf,Fort Huachuca,,USA,31.588472,-110.344389
LIH,Lihue,Lihue,,USA,21.975983,-159.338958
HUF,Terre Haute Intl Hulman Fld,Terre Haute,,USA,39.451464,-87.307561
HVR,Havre City Co,Havre,,USA,48.542983,-109.762342
MWH,Grant Co Intl,Grant County Airport,,USA,47.207708,-119.32019
MPV,Edward F Knapp State,Montpelier,,USA,44.203503,-72.562328
,San Nicolas Island Nolf,San Nicolas Island,,USA,33.239765,-119.45816
RIC,Richmond Intl,Richmond,VA,USA,37.505167,-77.319667
SHV,Shreveport Rgnl,Shreveport,,USA,32.446629,-93.8256
CDV,Merle K Mudhole Smith,Cordova,,USA,60.491778,-145.477556
ORF,Norfolk Intl,Norfolk,VA,USA,36.894611,-76.201222
BPT,Southeast Texas Rgnl,Beaumont,,USA,29.950833,-94.020694
SAV,Savannah Hilton Head Intl,Savannah,GA,USA,32.127583,-81.202139
HIF,Hill Afb,Ogden,,USA,41.123939,-111.973039
OME,Nome,Nome,,USA,64.512203,-165.445247
SPB,Scappoose Industrial Airpark,San Luis,,USA,45.771028,-122.861833
PIE,St Petersburg Clearwater Intl,St. Petersburg,,USA,27.910167,-82.687389
MNM,Menominee Marinette Twin Co,Macon,,USA,45.12665,-87.638443
CXO,Lone Star Executive,Conroe,,USA,30.351833,-95.414467
SCC,Deadhorse,Deadhorse,,USA,70.19475,-148.465167
SAT,San Antonio Intl,San Antonio,,USA,29.533694,-98.469778
ROC,Greater Rochester Intl,Rochester,NY,USA,43.118866,-77.672389
COF,Patrick Afb,Coco Beach,,USA,28.234922,-80.610125
TEB,Teterboro,Teterboro,,USA,40.850103,-74.060837
RCA,Ellsworth Afb,Rapid City,,USA,44.145042,-103.103567
RDU,Raleigh Durham Intl,Raleigh-durham,NC,USA,35.877639,-78.787472
DAY,James M Cox Dayton Intl,Dayton,OH,USA,39.902375,-84.219375
ENA,Kenai Muni,Kenai,,USA,60.573111,-151.245
MLC,Mc Alester Rgnl,Mcalester,,USA,34.882403,-95.783463
IAG,Niagara Falls Intl,Niagara Falls,,USA,43.107333,-78.946194
CFD,Coulter Fld,Bryan,,USA,30.715694,-96.331361
,Wright Aaf,Wright,,USA,31.889097,-81.562333
PHF,Newport News Williamsburg Intl,Newport News,VA,USA,37.131894,-76.492989
ESF,Esler Rgnl,Alexandria,,USA,31.394903,-92.295772
LTS,Altus Afb,Altus,,USA,34.667067,-99.266681
TUS,Tucson Intl,Tucson,,USA,32.116083,-110.941028
MIB,Minot Afb,Minot,,USA,48.415572,-101.357661
BAB,Beale Afb,Marysville,,USA,39.136089,-121.436567
IKK,Greater Kankakee,Kankakee,,USA,41.071389,-87.846278
GSB,Seymour Johnson Afb,Goldsboro,,USA,35.339383,-77.960589
PVD,Theodore Francis Green State,Providence,RI,USA,41.732581,-71.420383
SBY,Salisbury Ocean City Wicomico Rgnl,Salisbury,,USA,38.340525,-75.510289
RIU,Rancho Murieta,Rancho Murieta,,USA,38.486778,-121.102778
BUR,Bob Hope,Burbank,,USA,34.200667,-118.358667
DTW,Detroit Metro Wayne Co,Detroit,MI,USA,42.212444,-83.353389
TPA,Tampa Intl,Tampa,FL,USA,27.975472,-82.53325
PMB,Pembina Muni,Pembina,,USA,48.942501,-97.240833
POE,Polk Aaf,Fort Polk,,USA,31.044833,-93.191667
EIL,Eielson Afb,Fairbanks,,USA,64.665667,-147.1015
HIB,Chisholm Hibbing,Hibbing,,USA,47.3866,-92.838994
LFK,Angelina Co,Lufkin,,USA,31.234014,-94.75
MAF,Midland Intl,Midland,,USA,31.942528,-102.201914
GRB,Austin Straubel Intl,Green Bay,,USA,44.485072,-88.129589
ADM,Ardmore Muni,Ardmore,,USA,34.300833,-97.008889
WRI,Mc Guire Afb,Wrightstown,,USA,40.015556,-74.591667
NKT,Cherry Point Mcas,Cherry Point,,USA,34.900872,-76.880733
SBO,Emanuel Co,Santa Barbara,,USA,32.609139,-82.369944
AGS,Augusta Rgnl At Bush Fld,Bush Field,,USA,33.369944,-81.9645
ISN,Sloulin Fld Intl,Williston,,USA,48.177939,-103.642347
LIT,Adams Fld,Little Rock,,USA,34.729444,-92.224306
SWF,Stewart Intl,Newburgh,,USA,41.504094,-74.104839
BDE,Baudette Intl,Baudette,,USA,48.728444,-94.612222
SAC,Sacramento Executive,Sacramento,,USA,38.512524,-121.49347
HOM,Homer,Homer,,USA,59.645556,-151.476583
TBN,Waynesville Rgnl Arpt At Forney Fld,Fort Leonardwood,,USA,37.741631,-92.140736
MGE,Dobbins Arb,Marietta,,USA,33.915382,-84.516319
SKA,Fairchild Afb,Spokane,,USA,47.615058,-117.655772
HTL,Roscommon Co,Houghton Lake,,USA,44.359806,-84.671112
PAM,Tyndall Afb,Panama City,,USA,30.069567,-85.575417
DFW,Dallas Fort Worth Intl,Dallas-Fort Worth,TX,USA,32.896828,-97.037997
MLB,Melbourne Intl,Melbourne,,USA,28.102753,-80.645258
TCM,Mc Chord Afb,Tacoma,,USA,47.137678,-122.476475
AUS,Austin Bergstrom Intl,Austin,TX,USA,30.194528,-97.669889
LCK,Rickenbacker Intl,Columbus,,USA,39.813786,-82.927822
,Sawyer Intl,Gwinn,,USA,46.353625,-87.395353
TYS,Mc Ghee Tyson,Knoxville,TN,USA,35.810972,-83.994028
HLR,Hood Aaf,Fort Hood,,USA,31.138731,-97.714469
STL,Lambert St Louis Intl,St. Louis,MO,USA,38.748697,-90.370028
MIV,Millville Muni,Millville,,USA,39.367806,-75.072222
SPS,Sheppard Afb Wichita Falls Muni,Wichita Falls,,USA,33.988797,-98.491894
LUK,Cincinnati Muni Lunken Fld,Cincinnati,,USA,39.103333,-84.418611
ATL,Hartsfield Jackson Atlanta Intl,Atlanta,GA,USA,33.636719,-84.428067
MER,Castle,Merced,,USA,37.380481,-120.568189
MCC,Mc Clellan Afld,Sacramento,,USA,38.667639,-121.400611
GRR,Gerald R Ford Intl,Grand Rapids,,USA,42.880833,-85.522806
INK,Winkler Co,Wink,,USA,31.779628,-103.201361
FAT,Fresno Yosemite Intl,Fresno,,USA,36.776194,-119.71814
VRB,Vero Beach Muni,Vero Beach,,USA,27.655556,-80.417944
IPL,Imperial Co,Imperial,,USA,32.834219,-115.578744
BNA,Nashville Intl,Nashville,TN,USA,36.124472,-86.678194
LRD,Laredo Intl,Laredo,,USA,27.54375,-99.461556
EDF,Elmendorf Afb,Anchorage,,USA,61.250986,-149.806503
OTZ,Ralph Wien Mem,Kotzebue,,USA,66.884678,-162.59855
AOO,Altoona Blair Co,Altoona,,USA,40.296372,-78.320022
DYS,Dyess Afb,Abilene,,USA,32.420756,-99.8546
ELD,South Arkansas Rgnl At Goodwin Fld,El Dorado,,USA,33.220972,-92.813278
LGA,La Guardia,New York,NY,USA,40.777245,-73.872608
TLH,Tallahassee Rgnl,Tallahassee,,USA,30.396528,-84.350333
DPA,Dupage,West Chicago,,USA,41.907778,-88.248611
ACT,Waco Rgnl,Waco,,USA,31.611289,-97.230519
AUG,Augusta State,Augusta,,USA,44.320647,-69.797317
INJ,Hillsboro Muni,Hillsboro,,USA,32.083486,-97.097228
NIP,Jacksonville Nas,Jacksonville,,USA,30.235834,-81.680556
MKL,Mc Kellar Sipes Rgnl,Jackson,,USA,35.599889,-88.915611
MKK,Molokai,Molokai,,USA,21.152886,-157.096256
FTK,Godman Aaf,Fort Knox,,USA,37.907058,-85.972106
,New River Mcas,Jacksonville,,USA,34.708417,-77.439667
SJT,San Angelo Rgnl Mathis Fld,San Angelo,,USA,31.35775,-100.496306
CXL,Calexico Intl,Calexico,,USA,32.669502,-115.51333
CIC,Chico Muni,Chico,,USA,39.795383,-121.858422
BTV,Burlington Intl,Burlington,VT,USA,44.471861,-73.153278
JAX,Jacksonville Intl,Jacksonville,FL,USA,30.494056,-81.687861
DRO,Durango La Plata Co,Durango,,USA,37.151516,-107.75377
IAD,Washington Dulles Intl,Washington,VA,USA,38.944533,-77.455811
CLL,Easterwood Fld,College Station,,USA,30.588583,-96.363833
SFF,Felts Fld,Spokane,,USA,47.682819,-117.322558
MKE,General Mitchell Intl,Milwaukee,WI,USA,42.947222,-87.896583
ABI,Abilene Rgnl,Abilene,,USA,32.411319,-99.681897
COU,Columbia Rgnl,Columbia,,USA,38.818094,-92.219631
PDX,Portland Intl,Portland,OR,USA,45.588722,-122.5975
TNT,Dade Collier Training And Transition,Miami,,USA,25.861806,-80.897
PBI,Palm Beach Intl,West Palm Beach,FL,USA,26.683161,-80.095589
FTW,Fort Worth Meacham Intl,Fort Worth,,USA,32.819778,-97.362444
OGS,Ogdensburg Intl,Ogdensburg,,USA,44.681854,-75.4655
FMH,Otis Angb,Falmouth,,USA,41.658439,-70.521417
BFI,Boeing Fld King Co Intl,Seattle,,USA,47.53,-122.301947
SKF,Lackland Afb Kelly Fld Annex,San Antonio,,USA,29.384228,-98.581108
HNL,Honolulu Intl,Honolulu,HI,USA,21.318681,-157.922428
DSM,Des Moines Intl,Des Moines,,USA,41.533972,-93.663083
EWN,Craven Co Rgnl,New Bern,,USA,35.072972,-77.042944
SAN,San Diego Intl,San Diego,CA,USA,32.733556,-117.189667
MLU,Monroe Rgnl,Monroe,,USA,32.510864,-92.037689
SSC,Shaw Afb,Sumter,,USA,33.972719,-80.470564
ONT,Ontario Intl,Ontario,,USA,34.056,-117.601194
GVT,Majors,Greenvile,,USA,33.067839,-96.065333
ROW,Roswell Intl Air Center,Roswell,,USA,33.301556,-104.530556
DET,Coleman A Young Muni,Detroit,,USA,42.409195,-83.009861
BRO,Brownsville South Padre Island Intl,Brownsville,,USA,25.906833,-97.425861
DHN,Dothan Rgnl,Dothan,,USA,31.321339,-85.449628
WWD,Cape May Co,Wildwood,,USA,39.008507,-74.908275
NFL,Fallon Nas,Fallon,,USA,39.416584,-118.70098
MTC,Selfridge Angb,Mount Clemens,,USA,42.608333,-82.8355
FMN,Four Corners Rgnl,Farmington,,USA,36.74125,-108.229944
CRP,Corpus Christi Intl,Corpus Christi,,USA,27.770361,-97.501222
SYR,Syracuse Hancock Intl,Syracuse,NY,USA,43.111187,-76.106311
NQX,Key West Nas,Key West,,USA,24.575834,-81.688889
MDW,Chicago Midway Intl,Chicago,IL,USA,41.785972,-87.752417
SJC,Norman Y Mineta San Jose Intl,San Jose,,USA,37.3626,-121.929022
HOB,Lea Co Rgnl,Hobbs,,USA,32.687528,-103.217028
PNE,Northeast Philadelphia,Philadelphia,,USA,40.081944,-75.010586
DEN,Denver Intl,Denver,CO,USA,39.861656,-104.673178
PHL,Philadelphia Intl,Philadelphia,PA,USA,39.871944,-75.241139
SUX,Sioux Gateway Col Bud Day Fld,Sioux City,,USA,42.402603,-96.384367
MCN,Middle Georgia Rgnl,Macon,,USA,32.69285,-83.649211
TCS,Truth Or Consequences Muni,Truth Or Consequences,,USA,33.236944,-107.27175
PMD,Palmdale Rgnl Usaf Plt 42,Palmdale,,USA,34.629391,-118.08456
RND,Randolph Afb,San Antonio,,USA,29.529675,-98.2789
NJK,El Centro Naf,El Centro,,USA,32.829222,-115.671667
CMH,Port Columbus Intl,Columbus,OH,USA,39.997972,-82.891889
FYV,Drake Fld,Fayetteville,,USA,36.005094,-94.170059
FSI,Henry Post Aaf,Fort Sill,,USA,34.649833,-98.402167
PNM,Princeton Muni,Princeton,,USA,45.559868,-93.608217
FFO,Wright Patterson Afb,Dayton,,USA,39.826111,-84.048332
GAL,Edward G Pitka Sr,Galena,,USA,64.736178,-156.937417
,Chandler Muni,Chandler,,USA,33.269111,-111.811111
MWL,Mineral Wells,Mineral Wells,,USA,32.781606,-98.060175
IAB,Mc Connell Afb,Wichita,,USA,37.621853,-97.268192
NBG,New Orleans Nas Jrb,New Orleans,,USA,29.825333,-90.035
BFT,Beaufort,Beaufort,,USA,32.477411,-80.723161
TXK,Texarkana Rgnl Webb Fld,Texarkana,,USA,33.453722,-93.991028
PBG,Plattsburgh Intl,Plattsburgh,,USA,44.650944,-73.468139
APG,Phillips Aaf,Aberdeen,,USA,39.466219,-76.168808
TCC,Tucumcari Muni,Tucumcari,,USA,35.182777,-103.603186
ANC,Ted Stevens Anchorage Intl,Anchorage,,USA,61.174361,-149.996361
GRK,Robert Gray Aaf,Killeen,,USA,31.06725,-97.828917
ZUN,Black Rock,Zuni Pueblo,,USA,35.083228,-108.791778
BLI,Bellingham Intl,Bellingham,,USA,48.792694,-122.537528
NQA,Millington Rgnl Jetport,Millington,,USA,35.356667,-89.870278
EKN,Elkins Randolph Co Jennings Randolph,Elkins,,USA,38.889444,-79.857139
HFD,Hartford Brainard,Hartford,,USA,41.736722,-72.649444
SFZ,North Central State,Smithfield,,USA,41.920764,-71.491381
MOB,Mobile Rgnl,Mobile,,USA,30.691231,-88.242814
NUQ,Moffett Federal Afld,Mountain View,,USA,37.416142,-122.049139
SAF,Santa Fe Muni,Santa Fe,,USA,35.617108,-106.089422
BKH,Barking Sands Pmrf,Barking Sands,,USA,22.022833,-159.785
DRI,Beauregard Rgnl,Deridder,,USA,30.831722,-93.339917
BSF,Bradshaw Aaf,Bradshaw Field,,USA,19.760056,-155.553717
OLS,Nogales Intl,Nogales,,USA,31.417722,-110.84789
MCF,Macdill Afb,Tampa,,USA,27.849339,-82.521214
BLV,Scott Afb Midamerica,Belleville,,USA,38.545178,-89.835183
OPF,Opa Locka,Miami,,USA,25.907,-80.278389
DRT,Del Rio Intl,Del Rio,,USA,29.374208,-100.927158
RSW,Southwest Florida Intl,Fort Myers,FL,USA,26.536167,-81.755167
AKN,King Salmon,King Salmon,,USA,58.676778,-156.649278
MUI,Muir Aaf,Muir,,USA,40.434811,-76.569411
JHM,Kapalua,Lahania-kapalua,,USA,20.962936,-156.673031
JFK,John F Kennedy Intl,New York,NY,USA,40.639751,-73.778925
HST,Homestead Arb,Homestead,,USA,25.48855,-80.383567
RAL,Riverside Muni,Riverside,,USA,33.951875,-117.445103
FLV,Sherman Aaf,Fort Leavenworth,,USA,39.368332,-94.914686
WAL,Wallops Flight Facility,Wallops Island,,USA,37.940194,-75.466389
HMN,Holloman Afb,Alamogordo,,USA,32.852519,-106.106525
NXX,Willow Grove Nas Jrb,Willow Grove,,USA,40.199833,-75.148167
CYS,Cheyenne Rgnl Jerry Olson Fld,Cheyenne,,USA,41.155722,-104.811839
SCK,Stockton Metropolitan,Stockton,,USA,37.894167,-121.238306
CHS,Charleston Afb Intl,Charleston,SC,USA,32.898647,-80.040528
RNO,Reno Tahoe Intl,Reno,,USA,39.499108,-119.768108
KTN,Ketchikan Intl,Ketchikan,,USA,55.355556,-131.71375
YIP,Willow Run,Detroit,,USA,42.237928,-83.530408
VBG,Vandenberg Afb,Lompoc,,USA,34.737333,-120.584306
BHM,Birmingham Intl,Birmingham,,USA,33.562942,-86.75355
NEL,Lakehurst Naes,Lakehurst,,USA,40.033333,-74.353333
SYA,Eareckson As,Shemya,,USA,52.712275,174.11362
LSV,Nellis Afb,Las Vegas,,USA,36.236197,-115.034253
RIV,March Arb,Riverside,,USA,33.880711,-117.259453
MOD,Modesto City Co Harry Sham,Modesto,,USA,37.625817,-120.954422
SMF,Sacramento Intl,Sacramento,CA,USA,38.695417,-121.590778
UGN,Waukegan Rgnl,Chicago,,USA,42.422161,-87.867908
COS,City Of Colorado Springs Muni,Colorado Springs,,USA,38.805805,-104.700778
BUF,Buffalo Niagara Intl,Buffalo,NY,USA,42.940525,-78.732167
SKY,Griffing Sandusky,Sandusky,,USA,41.433361,-82.652333
PAE,Snohomish Co,Everett,,USA,47.906342,-122.281564
MUO,Mountain Home Afb,Mountain Home,,USA,43.043603,-115.872431
CDC,Cedar City Rgnl,Cedar City,,USA,37.700967,-113.098847
BDL,Bradley Intl,Windsor Locks,CT,USA,41.938889,-72.683222
MFE,Mc Allen Miller Intl,Mcallen,,USA,26.175833,-98.238611
NGU,Norfolk Ns,Norfolk,,USA,36.937644,-76.289289
CEF,Westover Arb Metropolitan,Chicopee Falls,,USA,42.194014,-72.534783
LBB,Lubbock Preston Smith Intl,Lubbock,,USA,33.663639,-101.822778
ORD,Chicago Ohare Intl,Chicago,IL,USA,41.978603,-87.904842
BCT,Boca Raton,Boca Raton,,USA,26.3785,-80.107694
FAI,Fairbanks Intl,Fairbanks,,USA,64.815114,-147.856267
NYG,Quantico Mcaf,Quantico,,USA,38.501683,-77.305333
CVS,Cannon Afb,Clovis,,USA,34.382775,-103.322147
NGF,Kaneohe Bay Mcaf,Kaneohe Bay,,USA,21.450453,-157.768
OFF,Offutt Afb,Omaha,,USA,41.118332,-95.912511
GKN,Gulkana,Gulkana,,USA,62.154888,-145.456639
ART,Watertown Intl,Watertown,,USA,43.991922,-76.021739
PSP,Palm Springs Intl,Palm Springs,,USA,33.829667,-116.506694
AMA,Rick Husband Amarillo Intl,Amarillo,,USA,35.219369,-101.705931
FOD,Fort Dodge Rgnl,Fort Dodge,,USA,42.5512,-94.191842
BAD,Barksdale Afb,Shreveport,,USA,32.50182,-93.662674
FOE,Forbes Fld,Topeka,,USA,38.950944,-95.663611
COT,Cotulla Lasalle Co,Cotulla,,USA,28.456694,-99.220294
ILM,Wilmington Intl,Wilmington,,USA,34.270615,-77.902569
BTR,Baton Rouge Metro Ryan Fld,Baton Rouge,LA,USA,30.533167,-91.149639
NMM,Meridian Nas,Meridian,,USA,32.552083,-88.555557
TYR,Tyler Pounds Rgnl,Tyler,,USA,32.354139,-95.402386
BWI,Baltimore Washington Intl,Baltimore,MD,USA,39.175361,-76.668333
HBR,Hobart Muni,Hobart,,USA,34.991308,-99.051353
LNY,Lanai,Lanai,,USA,20.785611,-156.951419
AEX,Alexandria Intl,Alexandria,,USA,31.3274,-92.549833
WSD,Condron Aaf,White Sands,,USA,32.341484,-106.40277
CDB,Cold Bay,Cold Bay,,USA,55.206061,-162.725436
TUL,Tulsa Intl,Tulsa,OK,USA,36.198389,-95.888111
SIT,Sitka Rocky Gutierrez,Sitka,,USA,57.047138,-135.361611
ISP,Long Island Mac Arthur,Islip,,USA,40.79525,-73.100222
MSP,Minneapolis St Paul Intl,Minneapolis,MN,USA,44.881956,-93.221767
ILG,New Castle,Wilmington,,USA,39.678722,-75.606528
DUT,Unalaska,Unalaska,,USA,53.900139,-166.5435
MSY,Louis Armstrong New Orleans Intl,New Orleans,LA,USA,29.993389,-90.258028
PWM,Portland Intl Jetport,Portland,,USA,43.646161,-70.309281
OKC,Will Rogers World,Oklahoma City,OK,USA,35.393089,-97.600733
ALB,Albany Intl,Albany,NY,USA,42.748267,-73.801692
VDZ,Valdez Pioneer Fld,Valdez,,USA,61.133949,-146.248342
LFI,Langley Afb,Hampton,,USA,37.082881,-76.360547
SNA,John Wayne Arpt Orange Co,Santa Ana,,USA,33.675667,-117.868222
CBM,Columbus Afb,Colombus,,USA,33.643833,-88.443833
TMB,Kendall Tamiami Executive,Kendall-tamiami,,USA,25.647889,-80.432777
NTU,Oceana Nas,Oceana,,USA,36.820703,-76.033542
GUS,Grissom Arb,Peru,,USA,40.648094,-86.152119
CPR,Natrona Co Intl,Casper,,USA,42.908,-106.464417
VPS,Eglin Afb,Valparaiso,,USA,30.48325,-86.5254
SEM,Craig Fld,Selma,,USA,32.343947,-86.987803
EYW,Key West Intl,Key West,,USA,24.556111,-81.759556
CLT,Charlotte Douglas Intl,Charlotte,NC,USA,35.214,-80.943139
LAS,Mc Carran Intl,Las Vegas,NV,USA,36.080056,-115.15225
MCO,Orlando Intl,Orlando,FL,USA,28.429394,-81.308994
FLO,Florence Rgnl,Florence,,USA,34.185361,-79.723889
GTF,Great Falls Intl,Great Falls,,USA,47.482,-111.370689
YNG,Youngstown Warren Rgnl,Youngstown,,USA,41.260736,-80.679097
FBK,Ladd Aaf,Fort Wainwright,,USA,64.8375,-147.614444
MMV,Mc Minnville Muni,Mackminnville,,USA,45.194444,-123.135944
WRB,Robins Afb,Macon,,USA,32.640144,-83.59185
PUW,Pullman-Moscow Rgnl,Pullman,,USA,46.743861,-117.109583
LWS,Lewiston Nez Perce Co,Lewiston,,USA,46.3745,-117.015389
ELM,Elmira Corning Rgnl,Elmira,,USA,42.159889,-76.891611
ITH,Ithaca Tompkins Rgnl,Ithaca,,USA,42.491028,-76.458444
MRY,Monterey Peninsula,Monterey,,USA,36.587,-121.842944
SBA,Santa Barbara Muni,Santa Barbara,,USA,34.426211,-119.840372
DAB,Daytona Beach Intl,Daytona Beach,,USA,29.179917,-81.058056
JRB,Wall Street Heliport,New York,,USA,40.701214,-74.009028
TKA,Talkeetna,Talkeetna,,USA,62.3205,-150.093694
HVN,Tweed-New Haven Airport,New Haven,,USA,41.26375,-72.886806
AVL,Asheville Regional Airport,Asheville,,USA,35.436194,-82.541806
GSO,Piedmont Triad,Greensboro,NC,USA,36.09775,-79.937306
FSD,Sioux Falls,Sioux Falls,,USA,43.582014,-96.741914
MHT,Manchester Regional Airport,Manchester NH,,USA,42.932556,-71.435667
APF,Naples Muni,Naples,,USA,26.152619,-81.775294
SDF,Louisville International Airport,Louisville,KY,USA,38.1740858,-85.7364989
CHO,Charlottesville-Albemarle,Charlottesville,VA,USA,38.138639,-78.452861
ROA,Roanoke Regional,Roanoke,VA,USA,37.325472,-79.975417
LEX,Blue Grass,Lexington KY,,USA,38.0365,-84.605889
EVV,Evansville Regional,Evansville,,USA,38.036997,-87.532364
ABQ,Albuquerque International Sunport,Albuquerque,,USA,35.0402222,-106.6091944
BZN,Gallatin Field,Bozeman,,USA,45.777643,-111.160151
BIL,Billings Logan International Airport,Billings,,USA,45.80921,-108.537654
BTM,Bert Mooney Airport,Butte,,USA,45.954806,-112.497472
TVC,Cherry Capital Airport,Traverse City,,USA,44.741445,-85.582235
BHB,Hancock County - Bar Harbor,Bar Harbor,,USA,44.4497689,-68.3615653
RKD,Knox County Regional Airport,Rockland,,USA,44.0601111,-69.0992303
JAC,Jackson Hole Airport,Jacksn Hole,WY,USA,43.60733333,-110.73775
RFD,Chicago Rockford International Airport ,Rockford,,USA,42.1953611,-89.0972222
TSS,East 34th Street Heliport,New York,,USA,40.7425,-73.971944
GSP,Greenville-Spartanburg International,Greenville,SC,USA,34.895556,-82.218889
BMI,Central Illinois Rgnl,Bloomington,,USA,40.477111,-88.915917
GPT,Gulfport-Biloxi,Gulfport,,USA,30.407278,-89.070111
AZO,Kalamazoo,Kalamazoo,,USA,42.234875,-85.552058
TOL,Toledo,Toledo,,USA,41.586806,-83.807833
FWA,Fort Wayne,Fort Wayne,,USA,40.978472,-85.195139
DEC,Decatur,Decatur,,USA,39.834564,-88.865689
CID,Cedar Rapids,Cedar Rapids,,USA,41.884694,-91.710806
LSE,La Crosse Municipal,La Crosse,,USA,43.878986,-91.256711
CWA,Central Wisconsin,Wassau,,USA,44.772726,-89.646635
PIA,Peoria Regional,Peoria,,USA,40.664203,-89.693258
ATW,Appleton,Appleton,,USA,44.257526,-88.507576
RST,Rochester,Rochester,,USA,43.908283,-92.500014
CMI,Champaign,Champaign,,USA,40.03925,-88.278056
MHK,Manhattan Reigonal,Manhattan,,USA,39.140972,-96.670833
FKL,Franklin,Franklin,,USA,41.377874,-79.860362
GJT,Grand Junction Regional,Grand Junction,,USA,39.122413,-108.526735
SGU,St George Muni,Saint George,,USA,37.090583,-113.593056
DWH,David Wayne Hooks Field,Houston,,USA,30.063746,-95.554276
S46,Port O\\'Connor Airfield,Port O\\'Connor,,USA,28.429977,-96.442859
SRQ,Sarasota Bradenton Intl,Sarasota,,USA,27.395444,-82.554389
VNY,Van Nuys,Van Nuys,,USA,34.209811,-118.489972
X21,Arthur Dunn Airpark,Titusville,,USA,28.622552,-80.83541
MLI,Quad City Intl,Moline,,USA,41.448528,-90.507539
PFN,Panama City Bay Co Intl,Panama City,,USA,30.212083,-85.682806
DWS,Orlando,Orlando,,USA,28.398,-81.57
BIS,Bismarck Municipal Airport,Bismarck,,USA,46.775842,-100.757931
TEX,Telluride,Telluride,,USA,37.953759,-107.90848
RAP,Rapid City Regional Airport,Rapid City,,USA,44.045278,-103.057222
CLD,McClellan-Palomar Airport,Carlsbad,,USA,33.0742,-117.1648
FNT,Bishop International,Flint,,USA,42.965424,-83.743629
RDD,Redding Muni,Redding,,USA,40.509,-122.293389
EUG,Mahlon Sweet Fld,Eugene,,USA,44.124583,-123.211972
IDA,Idaho Falls Rgnl,Idaho Falls,,USA,43.514556,-112.07075
MFR,Rogue Valley Intl Medford,Medford,,USA,42.374228,-122.8735
RDM,Roberts Fld,Redmond-Bend,,USA,44.254066,-121.149964
CAK,Akron Canton Regional Airport,Akron,OH,USA,40.9160833,-81.4421944
HSV,Huntsville International Airport-Carl T Jones Field,Huntsville,AL,USA,34.6371944,-86.7750556
PKB,Mid-Ohio Valley Regional Airport,PARKERSBURG,,USA,39.3451039,-81.4392031
MGM,Montgomery Regional Airport ,MONTGOMERY,,USA,32.3006389,-86.3939722
TRI,Tri-Cities Regional Airport,BRISTOL,,USA,36.4752222,-82.4074167
PAH,Barkley Regional Airport,PADUCAH,,USA,37.0602875,-88.7729583
FCA,Glacier Park Intl,Kalispell,,USA,48.310472,-114.256
PGA,Page Municipal Airport,Page,,USA,36.9261,-111.4483
MBS,Mbs Intl,Saginaw,,USA,43.532913,-84.079647
BGM,Greater Binghamton Edwin A Link Fld,Binghamton,,USA,42.208689,-75.979839
BLH,Blythe Airport,Blythe,,USA,33.619167,-114.716889
PSG,Petersburg James A. Johnson,Petersburg,,USA,56.801667,-132.945278
SFB,Orlando Sanford Intl,Sanford,,USA,28.777639,-81.237489
JST,John Murtha Johnstown-Cambria County Airport,Johnstown,,USA,40.316111,-78.833889
MSO,Missoula Intl,Missoula,,USA,46.916306,-114.090556
GCN,Grand Canyon National Park Airport,Grand Canyon,,USA,35.9523611,-112.1469722
SGR,Sugar Land Regional Airport,Sugar Land,,USA,29.62225,-95.6565278
APA,Centennial,Denver,,USA,39.570129,-104.849294
CVN,Clovis Muni,Clovis,,USA,34.425139,-103.079278
FST,Fort Stockton Pecos Co,Fort Stockton,,USA,30.915667,-102.916139
LVS,Las Vegas Muni,Las Vegas,,USA,35.654222,-105.142389
IWS,West Houston,Houston,,USA,29.818194,-95.672611
LHX,La Junta Muni,La Junta,,USA,38.049719,-103.509431
LRU,Las Cruces Intl,Las Cruces,,USA,32.289417,-106.921972
BKD,Stephens Co,Breckenridge,,USA,32.719047,-98.891
TPL,Draughon Miller Central Texas Rgnl,Temple,,USA,31.1525,-97.407778
OZA,Ozona Muni,Ozona,,USA,30.735281,-101.202972
WKL,Waikoloa Heliport,Waikoloa Village,,USA,19.9136,-155.864
EGE,Eagle Co Rgnl,Vail,,USA,39.642556,-106.917694
,Stapleton,Denver,,USA,39.779255,-104.88184
CGF,Cuyahoga County,Richmond Heights,,USA,41.565124,-81.4863555
MFD,Mansfield Lahm Regional,Mansfield,,USA,40.8214167,-82.5166389
CSG,Columbus Metropolitan Airport,Columbus,,USA,32.5163333,-84.9388611
LAW,Lawton-Fort Sill Regional Airport,Lawton,,USA,34.5677144,-98.4166367
FNL,Fort Collins Loveland Muni,Fort Collins,,USA,40.451828,-105.011336
FLG,Flagstaff Pulliam Airport,Flagstaff,,USA,35.140318,-111.6692392
TVL,Lake Tahoe Airport,South Lake Tahoe,,USA,38.893889,-119.995278
TWF,Magic Valley Regional Airport,Twin Falls,,USA,42.481803,-114.487733
MVY,Martha\\'s Vineyard,Vineyard Haven MA,,USA,41.391667,-70.615278
UUU,Newport State,Newport RI,,USA,41.533056,-71.282222
VSF,Hartness State,Springfield VT,,USA,43.343333,-72.517222
CON,Concord Municipal,Concord NH,,USA,43.20267,-71.50233
SFM,Sanford Regional,Sanford ME,,USA,43.39383,-70.708
GON,Groton New London,Groton CT,,USA,41.330056,-72.045139
STC,Saint Cloud Regional Airport,Saint Cloud,,USA,45.546556,-94.059889
GTR,Golden Triangle Regional Airport,Columbus Mississippi,,USA,33.450333,-88.591361
HQM,Bowerman Field,Hoquiam,,USA,46.9711944,-123.9365556
ERI,Erie Intl Tom Ridge Fld,Erie,,USA,42.082022,-80.176217
HYA,Barnstable Muni Boardman Polando Fld,Barnstable,,USA,41.669336,-70.280356
SDX,Sedona,Sedona,,USA,34.848628,-111.788472
,Dry Tortugas,Dry Tortugas,,USA,24.62,-82.87
,Dry Tortugas,Dry Tortugas,,USA,24.62,24.62
,Dry Tortugas,Dry Tortugas,,USA,24.628,82.873
MGW,Morgantown Muni Walter L Bill Hart Fld,Morgantown,,USA,39.642908,-79.916314
CRW,Yeager,Charleston,,USA,38.373147,-81.593189
AVP,Wilkes Barre Scranton Intl,Scranton,,USA,41.338478,-75.723403
BJI,Bemidji Regional Airport,Bemidji,,USA,47.510722,-94.934722
FAR,Hector International Airport,Fargo,,USA,46.92065,-96.8157639
MKC,Downtown,Kansas City,,USA,39.1275,-94.598889
AZA,Phoenix-Mesa Gateway,Mesa,,USA,33.307833,-111.655
GCC,Gillette-Campbell County Airport,Gillette,,USA,44.3489167,-105.5393611
NZJ,El Toro,Santa Ana,,USA,33.676132,-117.731164
ECA,Iosco County,East Tawas,,USA,44.311,-83.422
SCE,University Park Airport,State College Pennsylvania,,USA,40.849278,-77.848694
MEI,Key Field,Meridian,,USA,32.332624,-88.751868
SPI,Abraham Lincoln Capital,Springfield,,USA,39.8441,-89.677889
CEZ,Cortez Muni,Cortez,,USA,37.303,-108.628056
HDN,Yampa Valley,Hayden,CO,USA,40.481181,-107.21766
GUP,Gallup Muni,Gallup,,USA,35.511058,-108.789308
LBL,Liberal Muni,Liberal,,USA,37.044222,-100.95986
LAA,Lamar Muni,Lamar,,USA,38.069694,-102.6885
GLD,Renner Fld,Goodland,,USA,39.370621,-101.698992
COD,Yellowstone Rgnl,Cody,,USA,44.520194,-109.023806
SGF,Springfield Branson Natl,Springfield,,USA,37.245667,-93.388639
JLN,Joplin Rgnl,Joplin,,USA,37.151814,-94.498269
ABE,Lehigh Valley Intl,Allentown,,USA,40.652083,-75.440806
XNA,NW Arkansas Regional,Bentonville,,USA,36.2818694,-94.3068111
SBN,South Bend Rgnl,South Bend,,USA,41.708661,-86.31725
ZWU,Washington Union Station,Washington,,USA,38.89746,-77.00643
SMD,Smith Fld,Fort Wayne IN,,USA,41.143353,-85.152778
ACV,Arcata,Arcata CA,,USA,40.978111,-124.108611
ATT,Camp Mabry Austin City,Austin TX,,USA,30.31666,-97.7666
OAJ,Albert J Ellis,Jacksonville NC,,USA,34.829164,-77.612139
TCL,Tuscaloosa Rgnl,Tuscaloosa AL,,USA,33.220627,-87.611403
DBQ,Dubuque Rgnl,Dubuque IA,,USA,42.402,-90.709472
LUP,Kalaupapa Airport,Molokai,,USA,21.211,-156.974
WRG,Wrangell Airport,Wrangell,,USA,56.4843,-132.37
VAK,Chevak Airport,Chevak,,USA,61.5338,-165.584
ANI,Aniak Airport,Aniak,,USA,61.5816,-159.543
MOU,Mountain Village Airport,Mountain Village,,USA,62.0954,-163.682
MCG,McGrath Airport,Mcgrath,,USA,62.9529,-155.606
KLG,Kalskag Airport,Kalskag,,USA,61.5363,-160.341
HNS,Haines Airport,Haines,,USA,59.2438,-135.524
HCR,Holy Cross Airport,Holy Cross,,USA,62.1883,-159.775
SGY,Skagway Airport,Skagway,,USA,59.4601,-135.316
GST,Gustavus Airport,Gustavus,,USA,58.4253,-135.707
ADK,Adak Airport,Adak Island,,USA,51.878,-176.646
YKM,Yakima Air Terminal McAllister Field,Yakima,,USA,46.5682,-120.544
WRL,Worland Municipal Airport,Worland,,USA,43.9657,-107.951
VLD,Valdosta Regional Airport,Valdosta,,USA,30.7825,-83.2767
VCT,Victoria Regional Airport,Victoria,,USA,28.8526,-96.9185
UIN,Quincy Regional Baldwin Field,Quincy,,USA,39.9427,-91.1946
TUP,Tupelo Regional Airport,Tupelo,,USA,34.2681,-88.7699
SMX,Santa Maria Pub Cpt G Allan Hancock Airport,Santa Maria,,USA,34.8989,-120.457
SLN,Salina Municipal Airport,Salina,,USA,38.791,-97.6522
SLK,Adirondack Regional Airport,Saranac Lake,,USA,44.3853,-74.2062
SHR,Sheridan County Airport,Sheridan,,USA,44.7692,-106.98
SBP,San Luis County Regional Airport,San Luis Obispo,,USA,35.2368,-120.642
RUT,Rutland State Airport,Rutland,,USA,43.5294,-72.9496
RKS,Rock Springs Sweetwater County Airport,Rock Springs,,USA,41.5942,-109.065
RHI,Rhinelander Oneida County Airport,Rhinelander,,USA,45.6312,-89.4675
RDG,Reading Regional Carl A Spaatz Field,Reading,,USA,40.3785,-75.9652
PSM,Pease International Tradeport,Portsmouth,,USA,43.0779,-70.8233
PLN,Pellston Regional Airport of Emmet County Airport,Pellston,,USA,45.5709,-84.7967
PIR,Pierre Regional Airport,Pierre,,USA,44.3827,-100.286
PIH,Pocatello Regional Airport,Pocatello,,USA,42.9098,-112.596
PIB,Hattiesburg Laurel Regional Airport,Hattiesburg/Laurel,,USA,31.4671,-89.3371
OWB,Owensboro Daviess County Airport,Owensboro,,USA,37.7401,-87.1668
OTH,Southwest Oregon Regional Airport,North Bend,,USA,43.4171,-124.246
MSL,Northwest Alabama Regional Airport,Muscle Shoals,,USA,34.7453,-87.6102
MLS,Frank Wiley Field,Miles City,,USA,46.428,-105.886
MKG,Muskegon County Airport,Muskegon,,USA,43.1695,-86.2382
LYH,Lynchburg Regional Preston Glenn Field,Lynchburg,,USA,37.3267,-79.2004
LWT,Lewistown Municipal Airport,Lewistown,,USA,47.0493,-109.467
LNS,Lancaster Airport,Lancaster,,USA,40.1217,-76.2961
LMT,Klamath Falls Airport,Klamath Falls,,USA,42.1561,-121.733
LEB,Lebanon Municipal Airport,Lebanon,,USA,43.6261,-72.3042
LBF,North Platte Regional Airport Lee Bird Field,North Platte,,USA,41.1262,-100.684
LBE,Arnold Palmer Regional Airport,Latrobe,,USA,40.2759,-79.4048
LAR,Laramie Regional Airport,Laramie,,USA,41.3121,-105.675
JMS,Jamestown Regional Airport,Jamestown,,USA,46.9297,-98.6782
IRK,Kirksville Regional Airport,Kirksville,,USA,40.0935,-92.5449
HTS,Tri State Milton J Ferguson Field,Huntington,,USA,38.3667,-82.558
HOT,Memorial Field,Hot Springs,,USA,34.478,-93.0962
GRI,Central Nebraska Regional Airport,Grand Island,,USA,40.9675,-98.3096
GGW,Wokal Field Glasgow International Airport,Glasgow,,USA,48.2125,-106.615
FAY,Fayetteville Regional Grannis Field,Fayetteville,,USA,34.9912,-78.8803
EWB,New Bedford Regional Airport,New Bedford,,USA,41.6761,-70.9569
EKO,Elko Regional Airport,Elko,,USA,40.8249,-115.792
EAU,Chippewa Valley Regional Airport,Eau Claire,,USA,44.8658,-91.4843
DUJ,DuBois Regional Airport,Du Bois,,USA,41.1783,-78.8987
DDC,Dodge City Regional Airport,Dodge City,,USA,37.7634,-99.9656
CMX,Houghton County Memorial Airport,Hancock,,USA,47.1684,-88.4891
CLM,William R Fairchild International Airport,Port Angeles,,USA,48.1202,-123.5
CKB,Harrison Marion Regional Airport,Clarksburg,,USA,39.2966,-80.2281
CIU,Chippewa County International Airport,Sault Ste Marie,,USA,46.2508,-84.4724
CGI,Cape Girardeau Regional Airport,Cape Girardeau,,USA,37.2253,-89.5708
CEC,Del Norte County Airport,Crescent City,,USA,41.7802,-124.237
BRL,Southeast Iowa Regional Airport,Burlington,,USA,40.7832,-91.1255
BQK,Brunswick Golden Isles Airport,Brunswick,,USA,31.2588,-81.4665
BKW,Raleigh County Memorial Airport,Beckley,,USA,37.7873,-81.1242
BFF,Western Nebraska Regional Airport,Scottsbluff,,USA,41.874,-103.596
BFD,Bradford Regional Airport,Bradford,,USA,41.8031,-78.6401
ATY,Watertown Regional Airport,Watertown,,USA,44.914,-97.1547
APN,Alpena County Regional Airport,Alpena,,USA,45.0781,-83.5603
ALW,Walla Walla Regional Airport,Walla Walla,,USA,46.0949,-118.288
ALO,Waterloo Regional Airport,Waterloo,,USA,42.5571,-92.4003
ALM,Alamogordo White Sands Regional Airport,Alamogordo,,USA,32.8399,-105.991
AHN,Athens Ben Epps Airport,Athens,,USA,33.9486,-83.3263
ABY,Southwest Georgia Regional Airport,Albany,,USA,31.5355,-84.1945
ABR,Aberdeen Regional Airport,Aberdeen,,USA,45.4491,-98.4218
,Fremont Airport,Fremont,,USA,41.3331,-83.1612
WKK,Aleknagik Airport,Aleknagik,,USA,59.2826,-158.618
BKX,Brookings Regional Airport,Brookings,,USA,44.3048,-96.8169
BLF,Mercer County Airport,Bluefield,,USA,37.2958,-81.2077
EAR,Kearney Municipal Airport,Kearney,,USA,40.727,-99.0068
GLH,Mid Delta Regional Airport,Greenville,,USA,33.4829,-90.9856
IFP,Laughlin-Bullhead Intl,Bullhead,,USA,35.1574,-114.56
IGM,Kingman Airport,Kingman,,USA,35.2595,-113.938
PSC,Tri Cities Airport,Pasco,,USA,46.2647,-119.119
KQA,Akutan Seaplane Base,Akutan,,USA,54.1325,-165.785
SVC,Grant County Airport,Silver City,,USA,32.6365,-108.156
LPS,Lopez Island Airport,Lopez,,USA,48.4839,-122.938
ORH,Worcester Regional Airport,Worcester,,USA,42.2673,-71.8757
,New Rochelle Amtrak Station,New Rochelle,,USA,40.913923,-73.782008
,Anoka County Blaine Airport,Anoka,,USA,45.1448889,-93.2101944
ZVE,New Haven Rail Station,New Haven,,USA,41.298669,-72.925992
,Chicago Union Station,Chicago,,USA,41.8791966,-87.6388507
PWT,Bremerton National,Bremerton,,USA,47.490244,-122.764814
SPW,Spencer Muni,Spencer,,USA,43.165527,-95.202805
JEF,Jefferson City Memorial Airport,Jefferson City,,USA,38.5912,-92.1561
GCW,Grand Canyon West Airport,Grand Canyon West,,USA,35.5925,-113.4859
BLD,Boulder City Municipal Airport,Boulder City,,USA,35.5651,-114.514
,Glenview Amtrak Station,Glenview,,USA,42.074197,-87.805346
,Baltimore Penn Station,Baltimore,,USA,39.307408,-76.615552
PVC,Provincetown Muni,Provincetown,,USA,42.071945,-70.22139
LKE,Kenmore Air Harbor Seaplane Base,Seattle,,USA,47.629,-122.339
FUL,Fullerton Municipal Airport,Fullerton,,USA,33.521925,-117.584722
,Concord Rgnl,Concord,,USA,35.387775,-80.709136
SUN,Friedman Mem,Hailey,,USA,43.504444,-114.296194
MCW,Mason City Municipal,Mason City,,USA,43.2247,-93.4067
,Byron Airport,Byron,,USA,37.8284,-121.626
1OH,Fortman Airport,St. Marys,,USA,40.5553253,-84.3866186
EAT,Pangborn Field,Wenatchee,,USA,47.398,-120.206
OSH,Wittman Regional Airport,Oshkosh,,USA,44.024983,-88.551336
BEH,Southwest Michigan Regional Airport,Benton Harbor,,USA,42.1285833,-86.4285
UES,Waukesha County Airport,Waukesha,,USA,43.0410278,-88.2370556
10C,Galt Field Airport,Greenwood,,USA,42.4028889,-88.3751111
X01,Everglades Airpark,Everglades,,USA,25.8488611,-81.3902778
TOG,Togiak Airport,Togiak Village,,USA,59.0528,-160.397
PTH,Port Heiden Airport,Port Heiden,,USA,56.9591,-158.633
KVC,King Cove Airport,King Cove,,USA,55.1163,-162.266
KNW,New Stuyahok Airport,New Stuyahok,,USA,59.4499,-157.328
IGG,Igiugig Airport,Igiugig,,USA,59.324,-155.902
DRG,Deering Airport,Deering,,USA,66.0696,-162.766
SDP,Sand Point Airport,Sand Point,,USA,55.315,-160.523
HGR,Hagerstown Regional Richard A Henson Field,Hagerstown,,USA,39.7079,-77.7295
KPC,Port Clarence Coast Guard Station,Port Clarence,,USA,65.2537,-166.859
ARC,Arctic Village Airport,Arctic Village,,USA,68.1147,-145.579
WTK,Noatak Airport,Noatak,,USA,67.5661,-162.975
SVA,Savoonga Airport,Savoonga,,USA,63.6864,-170.493
SHH,Shishmaref Airport,Shishmaref,,USA,66.2496,-166.089
RBY,Ruby Airport,Ruby,,USA,64.7272,-155.47
PHO,Point Hope Airport,Point Hope,,USA,68.3488,-166.799
MYU,Mekoryuk Airport,Mekoryuk,,USA,60.3714,-166.271
KVL,Kivalina Airport,Kivalina,,USA,67.7362,-164.563
KSM,St Marys Airport,St Mary's,,USA,62.0605,-163.302
KAL,Kaltag Airport,Kaltag,,USA,64.3191,-158.741
HPB,Hooper Bay Airport,Hooper Bay,,USA,61.5239,-166.147
GAM,Gambell Airport,Gambell,,USA,63.7668,-171.733
ATK,Atqasuk Edward Burnell Sr Memorial Airport,Atqasuk,,USA,70.4673,-157.436
ANV,Anvik Airport,Anvik,,USA,62.6467,-160.191
AKP,Anaktuvuk Pass Airport,Anaktuvuk Pass,,USA,68.1336,-151.743
,Fort Worth NAS,Dallas,,USA,32.769167,-97.441528
GYY,Gary Chicago International Airport,Gary,,USA,41.6163,-87.4128
BRD,Brainerd Lakes Rgnl,Brainerd,,USA,46.398308,-94.138078
LWB,Greenbrier Valley Airport,Lewisburg,,USA,37.858333,-80.399444
PGV,Pitt-Greenville Airport,Greenville,,USA,35.635278,-77.385278
CYF,Chefornak Airport,Chefornak,,USA,60.149167,-164.285556
OXR,Oxnard - Ventura County,Oxnard,,USA,34.200833,-119.207222
BKG,Branson LLC,Branson,,USA,36.531994,-93.200556
ZBP,Penn Station,Baltimore,,USA,39.307222,-76.615556
ZYP,Penn Station,New York,,USA,40.7505,-73.9935
SCH,Stratton ANGB - Schenectady County Airpor,Scotia NY,,USA,42.85245555,-73.92886667
UST,Northeast Florida Regional Airport,St. Augustine,FL,USA,29.959167,-81.339722
STS,Charles M Schulz Sonoma Co,Santa Rosa,,USA,38.508978,-122.81288
ISM,Kissimmee Gateway Airport,Kissimmee,,USA,28.289806,-81.437083
LCQ,Lake City Municipal Airport,Lake City,,USA,30.181944,-82.576944
,DeLand Municipal Airport,DeLand,,USA,29.066944,-81.283889
,Haller Airpark Airport,Green Cove Springs,,USA,29.903021,-81.685923
LGU,Logan-Cache,Logan,,USA,41.791,-111.852
BMC,Brigham City,Brigham City,,USA,41.552,-112.062
MLD,Malad City,Malad City,,USA,42.17,-112.289
ASE,Aspen Pitkin County Sardy Field,Aspen,,USA,39.2232,-106.869
HHH,Hilton Head,Hilton Head,,USA,32.216,-80.752
ZFV,Philadelphia 30th St Station,Philadelphia,,USA,39.9557,-75.182
BWD,KBWD,Brownwood,,USA,31.7936111,-98.9565
LXY,Mexia - Limestone County Airport,Mexia,,USA,31.6411783,-96.5144594
ERV,Kerrville Municipal Airport,Kerrville,,USA,29.9766667,-99.0854722
GED,Sussex Co,Georgetown,,USA,38.689194,-75.358889
GBN,Great Bend Municipal,Great Bend,,USA,38.344167,-98.859167
HYS,Hays Regional Airport,Hays,,USA,38.8422,-99.2732
SUS,Spirit Of St Louis,Null,,USA,38.662119,-90.652044
LYU,Ely Municipal,Ely,,USA,47.824444,-91.830833
GPZ,Grand Rapids Itasca County,Grand Rapids MN,,USA,47.211111,-93.509722
TVF,Thief River Falls,Thief River Falls,,USA,48.065556,-96.185
EGV,Eagle River,Eagle River,,USA,45.932333,-89.268283
ARV,Lakeland,Minocqua - Woodruff,,USA,45.927778,-89.730833
IKV,Ankeny Regl Airport,Ankeny,,USA,41.691389,-93.566389
NGP,Corpus Christi NAS,Corpus Christi,,USA,27.692701,-97.290376
AVX,Avalon,Catalina Island,,USA,33.405,-118.415833
MHV,Mojave,Mojave,,USA,35.059364,-118.151856
KEH,Kenmore Air Harbor Inc Seaplane Base,Kenmore,,USA,47.7548,-122.259
HUT,Hutchinson Municipal Airport,Hutchinson,,USA,38.0655,-97.8606
EGA,Eagle County Airport,Eagle,,USA,39.6427611,-106.9159347
,Oak Lawn Train Station,Oak Lawn,,USA,41.7198243,-87.7488327
,Wrigleyville,Chicago,,USA,41.94895807,-87.6587534
STJ,Rosecrans Mem,Rosecrans,,USA,39.771944,-94.909706
ZRT,Hartford Union Station,Hartford,,USA,41.76888,-72.6815
ZTF,Stamford Amtrak Station,Stamford,,USA,41.046937,-73.541493
ZRP,Newark Penn Station,Newark,,USA,40.734722,-74.164167
VOK,Volk Fld,Camp Douglas,,USA,43.938956,-90.253433
BFT,BFT County Airport,Beauford,,USA,32.41083,-80.635
GUC,Gunnison - Crested Butte,Gunnison,,USA,38.533889,-106.933056
TOA,Zamperini Field Airport,Torrance,,USA,33.803392,-118.339611
MBL,Manistee County-Blacker Airport,Manistee,,USA,44.2725,-86.246944
,Hickam Air Force Base,Honolulu,,USA,21.318681,-157.922427
PGD,Charlotte County-Punta Gorda Airport,Punta Gorda,,USA,26.919722,-81.990556
JGC,Grand Canyon Heliport,Grand Canyon,,USA,35.96666666,-112.1333333
WFK,Northern Aroostook Regional Airport,Frenchville,,USA,47.285556,-68.312778
JHW,Chautauqua County-Jamestown,Jamestown,,USA,42.153333,-79.258056
SME,Lake Cumberland Regional Airport,Somerset,,USA,37.053611,-84.615556
SHD,Shenandoah Valley Regional Airport,Weyers Cave,,USA,38.263889,-78.896389
DVL,Devils Lake Regional Airport,Devils Lake,,USA,48.114444,-98.908611
DIK,Dickinson Theodore Roosevelt Regional Airport,Dickinson,,USA,46.7975,-102.801944
SDY,Sidney-Richland Municipal Airport,Sidney,,USA,47.706944,-104.1925
CDR,Chadron Municipal Airport,Chadron,,USA,42.8375,-103.095556
AIA,Alliance Municipal Airport,Alliance,,USA,42.053333,-102.803889
MCK,McCook Regional Airport,McCook,,USA,40.206389,-100.592222
MTH,Florida Keys Marathon Airport,Marathon,,USA,24.726111,-81.051389
GDV,Dawson Community Airport,Glendive,,USA,47.138611,-104.807222
OLF,LM Clayton Airport,Wolf Point,,USA,48.094444,-105.575
WYS,Yellowstone Airport,West Yellowstone,,USA,44.688333,-111.1175
ALS,San Luis Valley Regional Airport,Alamosa,,USA,37.435,-105.866667
CNY,Canyonlands Field,Moab,,USA,38.755,-109.754722
ELY,Ely Airport,Ely,,USA,39.299722,-114.841944
VEL,Vernal Regional Airport,Vernal,,USA,40.440833,-109.51
SRR,Sierra Blanca Regional Airport,Ruidoso,,USA,33.46285,-105.534751
SOW,Show Low Regional Airport,Show Low,,USA,34.265556,-110.005556
MYL,McCall Municipal Airport,McCall,,USA,44.889722,-116.101389
SMN,Lemhi County Airport,Salmon,,USA,45.123889,-113.881389
MMH,Mammoth Yosemite Airport,Mammoth Lakes,,USA,37.624049,-118.837772
FRD,Friday Harbor Airport,Friday Harbor,,USA,48.521944,-123.024444
ESD,Orcas Island Airport,Eastsound,,USA,48.708056,-122.910556
OTS,Anacortes Airport,Anacortes,,USA,48.498889,-122.6625
AST,Astoria Regional Airport,Astoria,,USA,46.157972,-123.878694
ONP,Newport Municipal Airport,Newport,,USA,44.580361,-124.057917
EMK,Emmonak Airport,Emmonak,,USA,62.786111,-164.490833
UNK,Unalakleet Airport,Unalakleet,,USA,63.888333,-160.798889
UUK,Ugnu-Kuparuk Airport,Kuparuk,,USA,70.330833,-149.5975
SHX,Shageluk Airport,Shageluk,,USA,62.692222,-159.569167
CHU,Chuathbaluk Airport,Chuathbaluk,,USA,61.579167,-159.215556
NUI,Nuiqsut Airport,Nuiqsut,,USA,70.21,-151.005556
EEK,Eek Airport,Eek,,USA,60.213611,-162.043889
KUK,Kasigluk Airport,Kasigluk,,USA,60.873333,-162.524444
KWT,Kwethluk Airport,Kwethluk,,USA,60.790278,-161.443611
KWK,Kwigillingok Airport,Kwigillingok,,USA,59.876389,-163.168611
MLL,Marshall Don Hunter Sr. Airport,Marshall,,USA,61.8646418,-162.026111
RSH,Russian Mission Airport,Russian Mission,,USA,61.775,-161.319444
WTL,Tuntutuliak Airport,Tuntutuliak,,USA,60.335278,-162.666944
KEK,Ekwok Airport,Ekwok,,USA,59.356944,-157.471111
KGK,Koliganek Airport,Koliganek,,USA,59.726667,-157.259444
KLL,Levelock Airport,Levelock,,USA,59.128056,-156.858611
KMO,Manokotak Airport,Manokotak,,USA,58.990278,-159.05
TWA,Twin Hills Airport,Twin Hills,,USA,59.074444,-160.275
CIK,Chalkyitsik Airport,Chalkyitsik,,USA,66.645,-143.74
EAA,Eagle Airport,Eagle,,USA,64.778056,-141.149722
HUS,Hughes Airport,Hughes,,USA,66.039167,-154.264722
HSL,Huslia Airport,Huslia,,USA,65.697778,-156.351389
LIV,Livingood Airport,Livingood,,USA,65.531111,-148.541111
MNT,Minto Airport,Minto,,USA,65.143611,-149.37
NUL,Nulato Airport,Nulato,,USA,64.729444,-158.074167
RMP,Rampart Airport,Rampart,,USA,65.507778,-150.140833
TAL,Tanana Airport,Tanana,,USA,65.179556,-152.075833
VEE,Venetie Airport,Venetie,,USA,67.008611,-146.366389
WBQ,Beaver Airport,Beaver,,USA,66.362222,-147.406667
CEM,Central Airport,Central,,USA,65.573889,-144.780833
SHG,Shungnak Airport,Shungnak,,USA,66.888056,-157.1625
KBC,Birch Creek Airport,Brich Creek,,USA,66.256708,-145.815319
CXF,Coldfoot Airport,Coldfoot,,USA,67.251389,-150.176111
IYK,Inyokern Airport,Inyokern,,USA,35.658889,-117.829444
VIS,Visalia Municipal Airport,Visalia,,USA,36.318611,-119.392778
MCE,Merced Municipal Airport,Merced,,USA,37.284722,-120.513889
,Phoenix Goodyear,Goodyear,,USA,33.423725,-112.374456
,Park City,Park City,,USA,40.659444,-111.4997222
AGN,Angoon Seaplane Base,Angoon,,USA,57.503611,-134.585
ELV,Elfin Cove Seaplane Base,Elfin Cove,,USA,58.195278,-136.3475
TKE,Tenakee Seaplane Base,Tenakee Springs,,USA,57.779722,-135.218333
PEC,Pelican Seaplane Base,Pelican,,USA,57.955278,-136.236389
CYM,Chatham Seaplane Base,Sitka,,USA,57.515,-134.946111
FNR,Funter Bay Seaplane Base,Funter Bay,,USA,58.254444,-134.897778
EXI,Excursion Inlet Seaplane Base,Excursion Inlet,,USA,58.420556,-135.449167
HNH,Hoonah Airport,Hoonah,,USA,58.096111,-135.409722
AFE,Kake Airport,Kake,,USA,56.961389,-133.910278
CGA,Craig Seaplane Base,Craig,,USA,55.478889,-133.147778
HYL,Hollis Seaplane Base,Hollis,,USA,55.481667,-132.646111
MTM,Metlakatla Seaplane Base,Metakatla,,USA,55.131111,-131.578056
KTB,Thorne Bay Seaplane Base,Thorne Bay,,USA,55.688056,-132.536667
HYG,Hydaburg Seaplane Base,Hydaburg,,USA,55.206389,-132.828333
WHD,Hyder Seaplane Base,Hyder,,USA,55.903333,-130.006667
KPB,Point Baker Seaplane Base,Point Baker,,USA,56.351944,-133.6225
PPV,Port Protection Seaplane Base,Port Protection,,USA,56.328889,-133.61
WWP,North Whale Seaplane Base,North Whale Pass,,USA,56.116389,-133.121667
KCQ,Chignik Lake Airport,Chignik Lake,,USA,56.255,-158.775278
EGX,Egegik Airport,Egegik,,USA,58.185556,-157.375556
KCL,Chignik Lagoon Airport,Chignik Lagoon,,USA,56.311111,-158.534167
KBW,Chignik Bay Seaplane Base,Chignik,,USA,56.295556,-158.401398
KPV,Perryville Airport,Perryville,,USA,55.906667,-159.160833
PIP,Pilot Point Airport,Pilot Point,,USA,57.585393,-157.571944
WSN,South Naknek Airport,South Naknek,,USA,58.702222,-157.0025
AKK,Akhiok Airport,Akhiok,,USA,56.938611,-154.1825
KYK,Karuluk Airport,Karluk,,USA,57.566944,-154.450278
KLN,Larsen Bay Airport,Larsen Bay,,USA,57.535,-153.976667
OLH,Old Harbor Airport,Old Harbor,,USA,57.218056,-153.269722
KOZ,Ouzinkie Airport,Ouzinkie,,USA,57.922876,-152.500511
ORI,Port Lions Airport,Port Lions,,USA,57.885278,-152.846111
ALZ,Alitak Seaplane Base,Lazy Bay,,USA,56.899444,-154.247778
AOS,Amook Bay Seaplane Base,Amook Bay,,USA,57.471389,-153.815278
KKB,Kitoi Bay Seaplane Base,Kitoi Bay,,USA,58.190833,-152.370556
KMY,Moser Bay Seaplane Base,Moser Bay,,USA,57.025556,-154.145833
KOY,Olga Bay Seaplane Base,Olga Bay,,USA,57.161389,-154.229722
KPY,Port Bailey Seaplane Base,Port Bailey,,USA,57.93,-153.040556
KPR,Port Williams Seaplane Base,Port Williams,,USA,58.49,-152.582222
SYB,Seal Bay Seaplane Base,Seal Bay,,USA,58.166667,-152.5
WSJ,San Juan - Uganik Seaplane Base,San Juan,,USA,57.730278,-153.320556
KWP,West Point Village Seaplane Base,West Point,,USA,57.77,-153.548889
KZB,Zachar Bay Seaplane Base,Zachar Bay,,USA,57.55,-153.75
ABL,Ambler Airport,Ambler,,USA,67.106389,-157.8575
BKC,Buckland Airport,Buckland,,USA,65.981667,-161.149167
IAN,Bob Baker Memorial Airport,Kiana,,USA,66.975833,-160.436667
OBU,Kobuk Airport,Kobuk,,USA,66.912222,-156.897222
ORV,Robert Curtis Memorial Airport,Noorvik,,USA,66.8175,-161.022222
WLK,Selawik Airport,Selawik,,USA,66.6,-159.985833
KTS,Brevig Mission Airport,Brevig Mission,,USA,65.331389,-166.465833
ELI,Elim Airport,Elim,,USA,64.615,-162.270556
GLV,Golovin Airport,Golovin,,USA,64.550556,-163.007222
TLA,Teller Airport,Teller,,USA,65.240278,-166.339444
WAA,Wales Airport,Wales,,USA,65.6225,-168.095
WMO,White Mountain Airport,White Mountain,,USA,64.689167,-163.412778
CIL,Council Airport,Council,,USA,64.897778,-163.703333
KKA,Koyuk Alfred Adams Airport,Koyuk,,USA,64.939444,-161.154167
SMK,St. Michael Airport,St. Michael,,USA,63.49,-162.110278
SKK,Shaktoolik Airport,Shaktoolik,,USA,64.371111,-161.223889
WBB,Stebbins Airport,Stebbins,,USA,63.515833,-162.278056
TNC,Tin City LRRS Airport,Tin City,,USA,65.563056,-167.921667
AKB,Atka Airport,Atka,,USA,52.220278,-174.206389
IKO,Nikolski Air Station,Nikolski,,USA,52.941667,-168.848889
ICY,Icy Bay Airport,Icy Bay,,USA,59.968889,-141.661667
CYT,Yakataga Airport,Yakataga,,USA,60.081901,-142.493611
AUK,Alakanuk Airport,Alakanuk,,USA,62.68,-164.66
SXP,Sheldon Point Airport,Nunam Iqua,,USA,62.520556,-164.847778
KPN,Kipnuk Airport,Kipnuk,,USA,59.933056,-164.030556
KFP,False Pass Airport,False Pass,,USA,54.8475,-163.410278
NLG,Nelson Lagoon,Nelson Lagoon,,USA,56.0075,-161.160278
PML,Port Moller Airport,Cold Bay,,USA,56.006111,-160.560833
KLW,Klawock Airport,Klawock,,USA,55.579167,-133.076111
KWN,Quinhagak Airport,Quinhagak,,USA,59.755,-161.845278
KOT,Kotlik Airport,Kotlik,,USA,63.030556,-163.532778
KYU,Koyukuk Airport,Koyukuk,,USA,64.875833,-157.730556
SCM,Scammon Bay Airport,Scammon Bay,,USA,61.845278,-165.571389
NNL,Nondalton Airport,Nondalton,,USA,59.966944,-154.851667
PDB,Pedro Bay Airport,Pedro Bay,,USA,59.782222,-154.1325
NUP,Nunapitchuk Airport,Nunapitchuk,,USA,60.905833,-162.439167
KKH,Kongiganak Airport,Kongiganak,,USA,59.960833,-162.881111
NIB,Nikolai Airport,Nikolai,,USA,63.010833,-154.383889
TCT,Takotna Airport,Takotna,,USA,62.971944,-156.082778
PQS,Pilot Station Airport,Pilot Station,,USA,61.934444,-162.899444
AKI,Akiak Airport,Akiak,,USA,60.902778,-161.230556
TLT,Tuluksak Airport,Tuluksak,,USA,61.096944,-160.969444
KGX,Grayling Airport,Grayling,,USA,62.894444,-160.065
AIN,Wainwright Airport,Wainwright,,USA,70.638056,-159.994722
NCN,Chenega Bay Airport,Chenega,,USA,60.077222,-147.991944
CZN,Chisana Airport,Chisana,,USA,62.071111,-142.048333
6K8,Tok Junction Airport,Tok,,USA,63.329444,-142.953611
IRC,Circle City Airport,Circle,,USA,65.827778,-144.076111
KCC,Coffman Cove Seaplane Base,Coffman Cove,,USA,56.014722,-132.833889
CKD,Crooked Creek Airport,Crooked Creek,,USA,61.867778,-158.135
RDV,Red Devil Airport,Red Devil,,USA,61.788056,-157.350278
SLQ,Sleetmute Airport,Sleetmute,,USA,61.700566,-157.165833
SRV,Stony River 2 Airport,Stony River,,USA,61.7875,-156.591111
HKB,Healy River Airport,Healy,,USA,63.8675,-148.968889
KAE,Kake Seaplane Base,Kake,,USA,56.973056,-133.945556
AQC,Klawock Seaplane Base,Klawock,,USA,55.554658,-133.101693
MHM,Minchumina Airport,Lake Minchumina,,USA,63.886111,-152.301944
MLY,Manley Hot Springs Airport,Manley Hot Springs,,USA,64.9975,-150.644167
STG,St. George Airport,St. George,,USA,56.577222,-169.663611
TEK,Tatitlek Airport,Tatitlek,,USA,60.8725,-146.691111
WFB,Ketchikan harbor Seaplane Base,Ketchikan,,USA,55.344444,-131.663333
,Lancaster Amtrak Station,Lancaster,,USA,40.05,-76.31
,Ardmore Amtrak Station,Ardmore,,USA,40.01,-75.29
,Metropark Amtrak Station,Iselin,,USA,40.568,-74.3275
CPS,St. Louis Downtown Airport,East St. Louis,,USA,38.5707244,-90.1562211
,Newport News Amtrak Station,Newport News,,USA,37.0228,-76.4519
,Portland Union Station,Portland,,USA,45.529,-122.6768
,Westport Amtrak Station,Westport,,USA,44.1871,-73.4519
,Trenton Amtrak Station,Trenton,,USA,40.21889,-74.75417
,North Philadelphia Amtrak Station,Philadelphia,,USA,39.9969556,-75.1487722
,Herbert Glacier,Juneau,,USA,58.571385,-134.607754
,Seattle Cruise Terminal,Seattle,,USA,47.615884,-122.330017
,Juneau Cruise Pier,Juneau,,USA,58.335451,-134.414978
,Skagway Cruise Pier,Skagway,,USA,59.470896,-135.31723
,Ketchikan Cruise Pier,Ketchikan ,,USA,55.346327,-131.644707
MRB,Eastern WV Regional Airport,Martinsburg,,USA,39.2407,-77.591
RKH,Rock Hill York Co Bryant Airport,Rock Hill,,USA,34.9878,-81.0572
AGC,Allegheny County Airport,Pittsburgh,,USA,40.3544,-79.9302
NZC,Cecil Field,Jacksonville,,USA,30.2187,-81.8767
FTY,Fulton County Airport Brown Field,Atlanta,,USA,33.7791,-84.5214
,Four Corners,Four Corners,,USA,36.998976,-109.045172
60J,Ocean Isle Beach Airport,Ocean Isle Beach,,USA,33.9085056,-78.4366722
OSU,Ohio State University Airport,Columbus,,USA,40.0798,-83.073
ADS,Addison,Addison,,USA,32.9685594,-96.8364478
DTS,Destin,Destin,,USA,30.4000611,-86.4714772
RBN,Fort Jefferson,Fort Jefferson - Dry Tortugas,,USA,24.61667,-82.86667
ISO,Kinston Regional Jetport,Kinston,,USA,35.331389,-77.608889
FFA,First Flight Airport,Kill Devil Hills,,USA,36.02,-75.67
PVU,Provo Municipal Airport,Provo,,USA,40.21805555,-111.7222222
SBS,Steamboat Springs Airport-Bob Adams Field,Steamboat Springs,,USA,40.51625,-106.8663056
DTA,Delta Municipal Airport,Delta,,USA,39.3806386,-112.5077147
RIF,Richfield Minicipal Airport,Richfield,,USA,38.7364361,-112.0989444
PUC,Carbon County Regional-Buck Davis Field,Price,,USA,39.609722,-110.75278
LAM,Los Alamos Airport,Los Alamos,,USA,35.8798019,-106.2694153
BXS,Borrego Valley Airport,Borrego Springs,,USA,33.2590278,-116.3209722
HII,Lake Havasu City Airport,Lake Havasu City,,USA,34.5711111,-114.3582778
INW,Winslow-Lindbergh Regional Airport,Winslow,,USA,35.0219167,-110.7225278
DGL,Douglas Municipal Airport,Douglas,,USA,31.3426028,-109.5064544
BOW,Bartow Municipal Airport,Bartow,,USA,27.9434,-81.7834
LVK,Livermore Municipal,Livermore,,USA,37.41362,-121.49133
MPI,MariposaYosemite,Mariposa,,USA,37.3039,-120.0222
,Liskeard Station,Liskeard,,USA,50.44708,-4.46753
,Neets Bay,Ketchikan,,USA,55.778889,-131.601389
TRM,Jacqueline Cochran Regional Airport,Palm Springs,,USA,33.626666,-116.1596667
SMO,Santa Monica Municipal Airport,Santa Monica,,USA,34.0158333,-118.4513056
UDD,Bermuda Dunes Airport,Palm Springs,,USA,33.7484375,-116.2748133
ZSY,Scottsdale Airport,Scottsdale,,USA,33.6228889,-111.9105278
OLM,Olympia Regional Airpor,Olympia,,USA,46.9694044,-122.9025447
DWA,Yolo County Airport,Davis-Woodland-Winters,,USA,38.5793889,-121.8569444
RIL,Garfield County Regional Airport,Rifle,,USA,39.5263056,-107.7269444
SAA,Shively Field Airport,SARATOGA,,USA,41.4448594,-106.8235264
PDK,Dekalb-Peachtree Airport,Atlanta,,USA,33.8756111,-84.3019722
BMG,Monroe County Airport,Bloomington,,USA,39.1460208,-86.6166805
SUA,Witham Field Airport,Stuart,,USA,27.1816996,-80.221294
MMU,Morristown Municipal Airport,Morristown,,USA,40.79935,-74.4148747
APC,Napa County Airport,Napa,,USA,38.2131944,-122.2806944
SDM,Brown Field Municipal Airport,San Diego,,USA,32.5722722,-116.9801611
PHK,Pahokee Airport,Pahokee,,USA,26.789,-80.692
,Venice Municipal,Venice,,USA,27.42439,-82.262364
,Pahokee,Pahokee,,USA,26.471041,-80.413591
ECP,Panama City-NW Florida Bea.,Panama City,,USA,30.3417,-85.7973
SBD,San Bernardino International Airport,San Bernardino,,USA,34.0953521,-117.2348722
SQL,San Carlos Airport,San Carlos,,USA,37.511944,-122.249444
RWI,Rocky Mount Wilson Regional Airport,Rocky Mount,,USA,35.8563,-77.8919
,Whittier Airport,Whittier,,USA,60.7772125,-148.7215775
SXQ,Soldotna Airport,Soldotna,,USA,60.4749583,-151.0382389
SEE,Gillespie,El Cajon,,USA,32.8262222,-116.9724444
,San Clemente Island Nalf,San Clemente Island,,USA,33.022744,-118.588489
TKF,Truckee-Tahoe Airport,Truckee,,USA,39.3200422,-120.1395628
,Detroit Amtrak Station,Detroit,,USA,42.368097,-83.072397
,Ventura Amtrak,Ventura,,USA,34.27833,-119.29222
MGR,Moultrie Municipal Airport,Moultrie,,USA,31.0849167,-83.80325
RYY,Cobb County Airport-Mc Collum Field,Atlanta,,USA,34.0131569,-84.5970556
ONH,Oneonta Municipal Airport,Oneonta,,USA,42.524722,-75.064444
4U9,Dell Flight Strip,Dell,,USA,44.7357483,-112.7200133
LVM,Mission Field Airport,Livingston-Montana,,USA,45.6993889,-110.4483056
6S0,Big Timber Airport,Big Timber,,USA,45.8063889,-109.9811111
BIV,Tulip City Airport,Holland,,USA,42.7427778,-86.1078333
,Monument Valley Airport,Monument Valley,,USA,37.0167,-110.201
JRA,West 30th St. Heliport,New York,,USA,40.7545,-74.0071
LAL,Lakeland Linder Regional Airport,Lakeland,,USA,27.9889167,-82.0185556
,Fort Lauderdale Cruise Terminal,Fort Lauderdale,,USA,26.0882,-80.115373
,Miami Cruise Terminal,Miami,,USA,25.779701,-80.177279
,Los Angeles San Pedro Cruise Terminal,Los Angeles,,USA,33.747198,-118.276856
,Kailua Kona Harbor,Kailua Kona Hawaii,,USA,19.635393,-155.998328
,Kauai Cruise Terminal Nawiliwili,Nawiliwili Kauai Hawaii,,USA,21.954549,-159.355981
,Hilo Cruise Terminal Hawaii,Hilo Hawaii,,USA,19.730967,-155.054094
,Honolulu Cruise Terminal Oahu,Honolulu Oahu,,USA,21.301185,-157.865671
,Lahaina Harbor Maui Hawaii,Lahaina Maui Hawaii,,USA,20.876456,-156.683235
,Seattle Cruise Terminal,Seattle WA,,USA,47.611241,-122.350026
IDL,Idlewild Intl,New York,,USA,40.639751,-73.778924
RBK,French Valley Airport,Murrieta-Temecula,,USA,33.5741791,-117.1284732
,Anchorage Main Station,Anchorage Alaska,,USA,61.221749,-149.890852
,Seward Train Station,Seward Alaska,,USA,60.121586,-149.439983
PCW,Erie-Ottawa Regional Airport,Port Clinton,,USA,41.5162703,-82.8694868
MGY,Dayton-Wright Brothers Airport,Dayton,,USA,39.5889722,-84.2248611
RID,Richmond Municipal Airport,Richmond,,USA,39.7561006,-84.8427175
FDY,Findlay Airport,Findley,,USA,41.0120278,-83.6686111
SPF,Black Hills Airport-Clyde Ice Field,Spearfish-South Dakota,,USA,44.4811407,-103.7860053
OLV,Olive Branch Muni,Olive Branch,,USA,34.876944,-89.783333
BJC,Rocky Mountain Metropolitan Airport,Broomfield-CO,,USA,39.90888888,-105.1172222
,Minot Train Station,Minot,,USA,48.2361,-101.2987
,Havre Train Station,Havre,,USA,48.55457,-109.67836
,Wishram Train Station,Wishram,,USA,45.6576,-120.9664
SLE,McNary Field,Salem,,USA,44.9095,-123.003
UTM,Tunica Municipal Airport,Tunica,,USA,34.681,-90.3467
MWC,Lawrence J Timmerman Airport,Milwaukee,,USA,43.1103889,-88.0344167
JVL,Southern Wisconsin Regional Airport,Janesville,,USA,42.62025,-89.0415556
GKY,Arlington Municipal,Arlington,,USA,32.6638611,-97.0942778
LZU,Gwinnett County Airport-Briscoe Field,Lawrenceville,,USA,33.9780761,-83.9623772
BWG,Bowling Green-Warren County Regional Airport,Bowling Green,,USA,36.9645278,-86.4196667
RVS,Richard Lloyd Jones Jr Airport,Tulsa,,USA,36.0396111,-95.9846389
,Emeryville Amtrak Station,Emeryville,,USA,37.8405149,-122.29134
,Bakersfield Amtrak Station,Bakersfield,,USA,35.372159,-119.008393
BCE,Bryce Canyon,Bryce Canyon,,USA,37.706444,-112.145806
BUY,Burlington-Alamance Regional Airport,Burlington,,USA,36.0485433,-79.4748892
JCI,New Century AirCenter Airport,Olathe,,USA,38.8309167,-94.8903056
ESN,Easton-Newnam Field Airport,Easton,,USA,38.8041667,-76.069
R49,Ferry County Airport,Republic,,USA,48.7182058,-118.6564714
MYV,Yuba County Airport,Yuba City,,USA,39.0553,-121.3411
DUC,Halliburton Field Airport,Duncan,,USA,34.4713056,-97.9598611
,Port Authority Bus Terminal,New York,,USA,40.75616,-73.9906
E91,Chinle Municipal Airport,Chinle,,USA,36.1108806,-109.5754222
UVA,Garner Field,Uvalde,,USA,29.215429,-99.748962
LOT,Lewis University Airport,Lockport,,USA,41.606326,-88.083003
C16,Frasca Field,Urbana,,USA,40.144979,-88.200197
CCR,Buchanan Field Airport,Concord,,USA,37.9896667,-122.0568889
OCA,Key Largo,Ocean Reef Club Airport,,USA,25.325393,-80.274775
,Denver Union Station,Denver,,USA,39.753187,-105.000093
,DELETE,DELETE,,USA,-1.1111,-1.1111
,Ohio University Airport,Athens,,USA,39.2118928,-82.2292554
SGH,Springfield-Beckly Municipal Airport,Springfield,,USA,39.8402778,-83.8401667
MPB,Miami Seaplane Base,Miami,,USA,25.7783,-80.1703
TOP,Philip Billard Muni,Topeka,,USA,39.068657,-95.622482
EMP,Emporia Municipal Airport,Emporia,,USA,38.3321,-96.1912
,Benson Airstrip,Uvalde,,USA,29.229405,-99.823947
,Rough River State Park,Null,,USA,37.609778,-86.506925
,Smyrna Airport,Smyrna,,USA,36.009,-86.5201
,Franklin County Airport,Sewanee,,USA,35.2051,-85.8981
TKI,Collin County Regional Airport at Mc Kinney,DALLAS,,USA,33.1779444,-96.5905278
PWK,Chicago Executive,Chicago-Wheeling,,USA,42.1142897,-87.9015376
KLS,Kelso Longview,Kelso,,USA,46.118,-122.898389
3W2,Put-in-Bay Airport,Put-in-Bay,,USA,41.3521,-82.497
,Glenwood Springs Train Station,Glenwood Springs,,USA,39.548,-107.3233
,Grand Junction Train Station,Grand Junction,,USA,39.0646,-108.5705
,Reno Amtrak Station,Reno,,USA,39.5287,-119.8116
,Sacramento Amtrak Station,Sacramento,,USA,38.584791,-121.500517
TWD,Jefferson County Intl,Port Townsend,,USA,48.0314,-122.4838
38W,Lynden Airport,Lynden,,USA,48.9558961,-122.4581183
0S9,Jefferson County Intl,Port Townsend,,USA,48.0538086,-122.8106436
,Boston South Station,Boston,,USA,42.35,-71.0558
ZRD,Train Station,Richmond,,USA,37.5343,-77.42945
ILN,Wilmington Airborne Airpark,Wilmington,,USA,39.42792,-83.792118
AVW,Marana Regional,Tucson,,USA,32.409556,-111.218388
CGZ,Casa Grande Municipal Airport,Casa Grande,,USA,32.954889,-111.766832
,Mobile,Mobile,,USA,33.111944,-112.269166
BXK,Buckeye Municipal Airport,Buckeye,,USA,33.420417,-112.68618
E63,Gila Bend Municipal Airport,Gila Bend,,USA,32.960169,-112.673636
MMI,McMinn Co,Athens,,USA,35.39919,-84.56177
STK,Sterling Municipal Airport,Sterling,,USA,40.6153136,-103.2648454
RWL,Rawlins Municipal Airport-Harvey Field,Rawlins,,USA,41.8055975,-107.19994
CDW,Caldwell Essex County Airport,Caldwell,,USA,40.8752222,-74.2813611
AIZ,Lee C Fine Memorial Airport,Kaiser Lake Ozark,,USA,38.096035,-92.5494875
L35,Big Bear City,Big Bear,,USA,34.2637778,-116.8560278
,Los Angeles Union Station,Los Angeles,,USA,34.056111,-118.234167
TVI,Thomasville Regional Airport,Thomasville,,USA,30.9017921,-83.8811285
HSH,Henderson Executive Airport,Henderson,,USA,35.972778,-115.134444
TMA,Henry Tift Myers Airport,Tifton,,USA,31.4289814,-83.488545
,Savannah Cruise Terminal,Savannah,,USA,32.08558,-81.097559
,CHARLESTON CRUISE TERMINAL,CHARLESTON,,USA,32.781081,-79.92364
,NEW YORK CRUISE TERMINAL PIER 92,NEW YORK,,USA,40.767681,-73.999107
DVT,Deer Valley Municipal Airport,Phoenix ,,USA,33.4117,112.457
,Republic Airport,Farmingdale,,USA,40.7288,-73.4134
,Seattle King Street Station,Seattle,,USA,47.5985,-122.3299
HDO,Hondo Municipal Airport,Hondo,,USA,29.3591,-99.1775
,Milwaukee Airport Station,Milwaukee,,USA,42.940556,-87.924722
,Springfield IL Amtrak,Springfield,,USA,39.8023,-89.6515
,St. Louis Amtrak - old,St. Louis,,USA,38.6241,-90.2056
,Camarillo Amtrak,Camarillo,,USA,34.2164,-119.0335
,Seattle Pier 52,Seattle,,USA,47.6005,-122.3388
,Bremerton Terminal,Bremerton,,USA,47.5619,-122.625
MCL,McKinley National Park Airport,McKinley Park,,USA,63.732757,-148.91129
LHD,Lake Hood Seaplane Base,Anchorage,,USA,61.1866382,-149.9653918
PPC,Prospect Creek Airport,Prospect Creek,,USA,66.814167,-150.643611
HCC,Columbia County,Hudson NY,,USA,42.2913,-73.7103
HLG,Wheeling Ohio County Airport,Wheeling,,USA,40.175,-80.6463
FZG,Fitzgerald Municipal Airport,Fitzgerald,,USA,31.6839046,-83.2709036
40J,Perry-Foley Airport,Perry,,USA,30.0692778,-83.5805833
70J,Cairo-Grady County Airport,Cairo,,USA,30.8879767,-84.1547353
RKP,Aransas County Airport,Rockport,,USA,28.0862222,-97.0436944
CKF,Crisp County Cordele Airport,Cordele,,USA,31.9888333,-83.7739167
OMN,Ormond Beach municipal Airport,Ormond Beach,,USA,29.1804,-81.06497
TTD,Portland Troutdale,Troutdale,,USA,45.54937,-122.401253
HIO,Portland Hillsboro,Hillsboro,,USA,45.540394,-122.949825
,One Police Plaza Heliport,New York,,USA,40.7126,-73.9996
24J,Suwannee County Airport,Live Oak,,USA,30.300125,-83.0246944
,Bend Municipal Airport,Bend,,USA,44.0945556,-121.2002222
,Christmas Valley Airport,Christmas Valley,,USA,43.2365314,-120.6660967
,Burns Municipal Airport,Burns,,USA,43.5919167,-118.9555444
,Prineville Airport,Prineville,,USA,44.2869939,-120.9038328
,Red Bluff Municipal Airport,Red Bluff,,USA,40.1506944,-122.2523056
,Gnoss Field Airport,Novato,,USA,38.1436111,-122.5561
,Lake County Airport,Lakeview,,USA,42.1611111,-120.3990833
,Tillamook Airport,Tillamook,,USA,45.4182419,-123.8143839
,Ontario Municipal Airport,Ontario,,USA,44.0193611,-117.0130278
,Columbia Gorge Regional - The Dalles Municipal Airport,The Dalles,,USA,45.6185556,-121.1673333
GAI,Montgomery County Airpark,Gaithersburg,,USA,39.1006,-77.09576
,Cincinnati Union Terminal,Cincinnati,,USA,39.109961,-84.537074
,Cleveland Clinic,Cleveland,,USA,41.50225,-81.62233
CVX,Charlevoix Municipal Airport,Charelvoix,,USA,45.3047778,-85.2753333
2J9,Quincy Municipal Airport,Quincy,,USA,30.5978708,-84.557425
RCE,Roche Harbor Seaplane Base,Roche Harbor,,USA,48.608056,-123.159722
BYW,Blakely Island Airport,Blakely Island,,USA,48.56025,-122.80243
RSJ,Rosario Seaplane Base,Rosario,,USA,48.645556,-122.868056
WSX,Westsound Seaplane Base,Westsound,,USA,48.617778,-122.952778
FBS,Friday Harbor Seaplane Base,Friday Harbor,,USA,48.537222,-123.009722
L06,Furnace Creek,Death Valley National Park,,USA,36.273,-116.515
XFL,Flagler County Airport,Flagler,,USA,29.2821,-81.1212
MVL,Morrisville Stowe State Airport,Morrisville,,USA,44.535,-72.614
RBD,Dallas Executive Airport,Dallas,,USA,32.680833,-96.868333
6Y8,Welke Airport,Beaver Island,,USA,45.721111,-85.520278
WST,Westerly State Airport,Washington County,,USA,41.349722,-71.803333
BID,Block Island State Airport,Block Island,,USA,41.168056,-71.577778
,Atmautluak Airport,Atmautluak,,USA,60.866667,-162.273056
,Atmautluak Airport,Atmautluak,,USA,60.866667,-162.273056
369,Atmautluak Airport,Atmautluak,,USA,60.866667,-162.273056
NME,Nightmute Airport,Nightmute,,USA,60.471111,-164.700833
OOK,Toksook Bay Airport,Toksook Bay,,USA,60.541389,-165.087222
TNK,Tununak Airport,Tununak,,USA,60.575556,-165.271667
GNU,Goodnews Airport,Goodnews Bay,,USA,59.1175,-161.5775
WWT,Newtok Airport,Newtok,,USA,60.939167,-164.641111
BGE,Decatur County Industrial Air Park,Bainbridge,,USA,30.9715981,-84.6369278
SPZ,Silver Springs Airport,Silver Springs,,USA,39.4030278,-119.2511944
WHP,Whiteman Airport,Los Angeles,,USA,34.2593253,-118.4134331
MAE,Madera Municipal Airport,Madera,,USA,36.9886111,-120.1124444
U76,Mountain Home Municipal Airport,Mountain Home,,USA,43.1316111,-115.7305671
19A,Jackson County Airport,Jefferson,,USA,34.1758638,-83.5615972
AAF,Apalachicola Regional Airport,Apalachicola,,USA,29.7276066,-85.0274416
SGJ,St. Augustine Airport,St. Augustine,,USA,29.95925,-81.3397222
DQH,Douglas Municipal Airport,Douglas,,USA,31.4767385,-82.8605664
FRP,St Lucie County International Airport,Fort Pierce,,USA,27.497472,-80.372638
ALX,Alexandria,Alexandria,,USA,38.806346,-77.0621
TAN,Taunton Municipal Airport - King Field,Taunton,,USA,41.8744017,-71.0166453
PYM,Plymouth Municipal Airport,Plymouth,,USA,41.9090278,-70.7287778
OQU,Quonset State Airport,North Kingstown,,USA,41.5971389,-71.4121389
1B9,Mansfield Municipal,Mansfield,,USA,42.0001331,-71.1967714
OWD,Norwood Memorial Airport,Norwood,,USA,42.1905278,-71.1729444
BAF,Barnes Municipal,Westfield,,USA,42.1579472,-72.715875
IJD,Windham Airport,Willimantic,,USA,41.7440278,-72.1802222
MGJ,Orange County Airport,Montgomery,,USA,41.5099884,-74.2646444
CXY,Capital City Airport,Harrisburg,,USA,40.2171389,-76.8513611
GHG,Marshfield Municipal Airport,Marshfield,,USA,42.09825,-70.6721389
DXR,Danbury Municipal Airport,Danbury,,USA,41.3715353,-73.4821906
ASH,Boire Field Airport,Nashua,,USA,42.78175,-71.5147778
LWM,Lawrence Municipal Airport,Lawrence,,USA,42.7171944,-71.1234167
OXC,Waterbury-Oxford Airport,Oxford,,USA,41.4785556,-73.13525
FIT,Fitchburg Municipal Airport,Fitchburg,,USA,42.5541111,-71.7589722
,Stockmar Airport,Villa Rica,,USA,33.7565556,-84.8850625
VPC,Cartersville Airport,Cartersville,,USA,34.1231475,-84.8487067
PYP,Centre-Piedmont-Cherokee County Regional Airport,Centre,,USA,34.0899167,-85.6100833
RMG,Richard B Russell Airport,Rome,,USA,34.3507778,-85.1586667
GAD,Northeast Alabama Regional Airport,Gadsden,,USA,33.9726489,-86.0890834
DKX,Knoxville Downtown Island Airport,Knoxville,,USA,35.9638333,-83.8736667
WDR,Barrow County Airport,Winder,,USA,33.9828611,-83.6674167
JYL,Plantation Airpark,Sylvania,,USA,32.6452778,-81.5971111
DNN,Dalton Municipal Airport,Dalton,,USA,34.7229444,-84.87025
CTJ,West Georgia Regional Airport - O V Gray Field,Carrollton,,USA,33.6316964,-85.1522641
4A9,Isbell Field Airport,Fort Payne,,USA,34.4736944,-85.7213889
LGC,LaGrange-Callaway Airport,LaGrange,,USA,33.0088611,-85.0726111
MLJ,Baldwin County Airport,Milledgeville,,USA,33.154225,-83.2414139
4A4,Polk County Airport - Cornelius Moore Field,Cedartown,,USA,34.0186944,-85.1464722
PIM,Harris County Airport,Pine Mountain,,USA,32.8406944,-84.8824444
FFC,Atlanta Regional Airport - Falcon Field,Atlanta,,USA,33.35725,-84.5718333
9A1,Covington Municipal Airport,Covington,,USA,33.6323083,-83.8474472
GVL,Lee Gilmer Memorial Airport,Gainesville,,USA,34.272627,-83.8302233
,Cherokee County Airport,Canton,,USA,34.3122175,-84.4221556
54J,DeFuniak Springs Airport,DeFuniak Springs,,USA,30.7311111,-86.1537778
9A5,Barwick Lafayette Airport,LaFayette,,USA,34.6884792,-85.2903319
PHD,Harry Clever Field Airport,New Philadelpha,,USA,40.4701667,-81.4199444
UDG,Darlington County Jetport,Darlington,,USA,34.4493845,-79.8900608
HXD,Hilton Head Airport,Hilton Head Island,,USA,32.2243611,-80.6974722
49A,Gilmer County Airport,Ellijay,,USA,34.6282222,-84.5265833
0A9,Elizabethton Municipal Airport,Elizabethton,,USA,36.3712222,-82.1734167
06A,Moton Field Municipal Airport,Tuskegee,,USA,32.4605722,-85.6800278
DNL,Daniel Field Airport,Augusta,,USA,33.4665028,-82.0393808
MRN,Foothills Regional Airport,Morganton,,USA,35.8202336,-81.6115119
PBX,Pike County Airport - Hatcher Field,Pikeville,,USA,37.5617639,-82.5663889
,Mallards Landing Airport,Locust Grove,,USA,33.3656703,-84.1651964
TOC,Toccoa RG Letourneau Field Airport,Toccoa,,USA,34.5928117,-83.2963717
VDF,Tampa Executive Airport,Tampa,,USA,28.0139772,-82.3452778
AFW,Fort Worth Alliance Airport,Fort Worth,,USA,32.987778,-97.318889
57C,East Troy Municipal Airport,East Troy,,USA,42.7971667,-88.3726111
MYF,Montgomery Field,San Diego,,USA,32.4759,117.759
LWC,Lawrence Municipal,Lawrence,,USA,39.009167,-95.2175
EGT,Wellington Municipal,Wellington,,USA,37.39411,-97.423225
6A2,Griffin-Spalding County Airport,Griffin,,USA,33.2269722,-84.2749444
PMP,Pompano Beach Airpark,Pompano Beach,,USA,26.2471389,-80.1110556
,Greyhound Station,Washington DC,,USA,38.90339,-77.00583
EET,Shelby County Airport,Alabaster,,USA,33.1777778,-86.7832222
,Sky Ranch at Carefree,Carefree,,USA,33.8180947,-111.8979242
UMP,Indianapolis Metropolitan Airport,Indianapolis,,USA,39.935278,-86.045
LOZ,London-Corbin Airport-MaGee Field,London,,USA,37.0868889,-84.0773889
,Camden Station,Baltimore,,USA,39.2837181,-76.621634
FBG,Fredericksburg Amtrak Station,Fredericksburg,,USA,38.298416,-77.456875
,Buffalo Bus Terminal,Buffalo,,USA,42.883512,-78.87205
,King St Station,Seattle,,USA,47.5985,-122.3299
,Palatka Amtrak Station,Palatka,,USA,29.649178,-81.640456
RAC,John H. Batten Airport,Racine,,USA,42.7605,-87.8152
REI,Redlands Municipal Airport,Redlands,,USA,34.08525,-117.146388
49X,Chemehuevi Valley,Chemehuevi Valley,,USA,34.528889,-114.431971
RIR,Flabob Airport,Riverside,,USA,33.988778,-117.409971
TIW,Tacoma Narrows Airport,Tacoma,,USA,47.267944,-122.57811
X39,Tampa North Aero Park,Tampa,,USA,28.221278,-82.374555
,Tenkiller Lake Airpark,COOKSON,,USA,35.705541,-94.933605
JKA,Jack Edwards Airport,Gulf Shores,,USA,30.2896389,-87.6717778
,Annapolis,Annapolis,,USA,38.972944,-76.501158
HZL,Hazleton Municipal,Hazleton,,USA,40.989167,-76.0025
CBE,Greater Cumberland Rgnl.,Cumberland,,USA,39.615278,-78.760556
,Sugar Loaf Shores Airport,Key West,,USA,24.6487544,-81.5798083
LNR,Tri-County Regional Airport,Lone Rock,,USA,43.211667,-90.181667
,Price County Airport,Phillips,,USA,45.705,-90.403056
,Municipal,Monroe,,USA,42.616389,-89.591944
JOT,Regional Airport,Joliet,,USA,41.517778,-88.175556
VYS,Illinois Valley Regional,Peru,,USA,41.351944,-89.153056
JXN,Reynolds Field,Jackson,,USA,42.260556,-84.460556
,Joseph A. Hardy Airport,Connellsville,,USA,39.959167,-79.657222
,Bedford County,Bedford,,USA,40.086111,-78.513333
BBX,Wings Field,Philadelphia,,USA,40.1375,-75.265
OBE,County,Okeechobee,,USA,27.265833,-80.851111
SEF,Regional - Hendricks AAF,Sebring,,USA,27.456389,-81.342222
AVO,Executive,Avon Park,,USA,27.591389,-81.528889
GIF,Gilbert Airport,Winter Haven,,USA,28.062778,-81.753333
ZPH,Municipal Airport,Zephyrhills,,USA,28.228056,-82.155833
OCF,International Airport,Ocala,,USA,29.1725,-82.224167
JES,Jesup-Wayne County Airport,Jesup,,USA,31.553889,-81.8825
52A,Madison GA Municipal Airport,Madison,,USA,33.612125,-83.4604444
CCO,Coweta County Airport,Newnan,,USA,33.3115656,-84.7697554
HQU,McDuffie County Airport,Thomson,,USA,33.5297315,-82.5169509
AIK,Municipal Airport,Aiken,,USA,33.6493889,-81.6850278
CDN,Woodward Field,Camden,,USA,34.2835833,-80.5648611
LBT,Municipal Airport,Lumberton,,USA,34.6098056,-79.0595556
3J1,Ridgeland Airport,Ridgeland,,USA,32.4934167,-80.99175
SOP,Moore County Airport,Pinehurst-Southern Pines,,USA,35.2376111,-79.3887958
RCZ,Richmond County Airport,Rockingham,,USA,34.8913056,-79.7596111
99N,Bamberg County Airport,Bamberg,,USA,33.3045278,-81.1084167
93C,Richland Airport,Richland Center,,USA,43.2833575,-90.2982819
Y51,Municipal Airport,Viroqua,,USA,43.5793603,-90.8964742
DLL,Baraboo Wisconsin Dells Airport,Baraboo,,USA,43.5217843,-89.7709266
7A4,Foster Field,Apple River,,USA,42.4664444,-90.1693889
SVH,Regional Airport,Statesville,,USA,35.7649958,-80.9538958
C89,Sylvania Airport,Sturtevant,,USA,42.70325,-87.9589722
BUU,Municipal Airport,Burlington,,USA,42.6907171,-88.3046825
N53,Stroudsburg-Pocono Airport,East Stroudsburg,,USA,41.0358717,-75.1606789
70N,Spring Hill Airport,Sterling,,USA,41.3473569,-75.4158972
06N,Randall Airport,Middletown,,USA,41.431912,-74.3915611
LHV,William T. Piper Mem.,Lock Haven,,USA,41.1357778,-77.4223056
29D,Grove City Airport,Grove City,,USA,41.1460278,-80.16775
04G,Lansdowne Airport,Youngstown,,USA,41.1304722,-80.6195833
3G3,Wadsworth Municipal,Wadsworth,,USA,41.0031572,-81.7564401
3G4,Ashland County Airport,Ashland,,USA,40.9029722,-82.2556389
4G0,Pittsburgh-Monroeville Airport,Monroeville,,USA,40.4526389,-79.7749167
,Zelienople Municipal Airport,Zelienople,,USA,40.8019722,-80.1608611
2G9,Somerset County Airport,Somerset,,USA,40.0388708,-79.0149951
4G4,Youngstown Elser Metro Airport,Youngstown,,USA,40.9617953,-80.6773264
41N,Braceville Airport,Braceville,,USA,41.2111675,-80.9692572
LPR,Lorain County Regional Airport,Lorain-Elyria,,USA,41.3442778,-82.1776389
7D9,Germack Airport,Geneva,,USA,41.7778322,-80.9039797
BKL,Burke Lakefront Airport,Cleveland,,USA,41.5175,-81.683333
DKK,Chautauqua County-Dunkirk Airport,Dunkirk,,USA,42.4933353,-79.2720417
4G2,Hamburg Inc Airport,Hamburg,,USA,42.7008925,-78.9147569
N87,Trenton-Robbinsville Airport,Trenton,,USA,40.2139444,-74.6017778
VAY,South Jersey Regional Airport,Mount Holly,,USA,39.9428889,-74.84575
7N7,Spitfire Aerodrome,Pedricktown,,USA,39.7355633,-75.3977211
LDJ,Linden Airport,Linden,,USA,40.6174472,-74.2445942
O03,Morgantown Airport,Morgantown,,USA,40.1570414,-75.8704892
0W3,Harford County Airport,Churchville,,USA,39.5668378,-76.2024028
ANQ,Tri-State Steuben County Airport,Angola,,USA,41.6396983,-85.0834933
C65,Plymouth Municipal Airport,Plymouth,,USA,41.3651307,-86.3002574
,Warsaw Municipal Airport,Warsaw,,USA,41.2746944,-85.8400556
VNW,Van Wert County Airport,Van Wert,,USA,40.8638295,-84.606358
17G,Port Bucyrus-Crawford County Airport,Bucyrus,,USA,40.7815556,-82.9748056
X07,Lake Wales Municipal Airport,Lake Wales,,USA,27.8938056,-81.6203889
RMY,Brooks Field Airport,Marshall,,USA,42.2511932,-84.9554443
GVQ,Genesee County Airport,Batavia,,USA,43.03175,-78.1696667
0G7,Finger Lakes Regional Airport,Seneca Falls,,USA,42.8835647,-76.7812318
N69,Stormville Airport,Stormville,,USA,41.5769708,-73.7323514
4B8,Robertson Field,Plainville,,USA,41.6893333,-72.8646944
0G6,Williams County Airport,Bryan,,USA,41.4673056,-84.5067778
CLW,Clearwater Air Park,Clearwater,,USA,27.9764722,-82.7586667
X49,South Lakeland Airport,Lakeland,,USA,27.9333581,-82.0439739
NYC,All Airports,New York,,USA,40.714167,-74.005833
CHI,All Airports,Chicago,,USA,41.883611,-87.631667
CGX,Meigs Field,Chicago,,USA,41.860278,-87.609722
WAS,All Airports,Washington,,USA,38.889444,-77.035278
JZP,Pickens County Airport,Jasper,,USA,34.4534722,-84.4572222
CRE,Grand Strand Airport,North Myrtle Beach,,USA,33.81175,-78.7239444
IGQ,Lansing Municipal,Lansing,,USA,41.5349167,-87.5295278
Y72,Bloyer Field,Tomah,,USA,43.9762222,-90.4806111
RNM,Ramona Airport,Ramona,,USA,33.0391667,-116.91525
OEB,Branch County Memorial Airport,Coldwater,,USA,41.9335691,-85.0522935
WBW,Wilkes-Barre Wyoming Valley Airport,Wilkes-Barre,,USA,41.2973074,-75.8522405
LNN,Lost Nation Municipal Airport,Willoughby,,USA,41.6840278,-81.38975
FFT,Capital City Airport,Frankfort,,USA,38.1819722,-84.9061389
LEW,Lewiston Maine,Lewiston,,USA,44.0484728,-70.2835075
6S2,Florence,Florence,,USA,43.9828168,-124.1113687
1A3,Martin Campbell Field Airport,Copperhead,,USA,35.0158056,-84.3468333
NBU,Naval Air Station,Glenview,,USA,42.090556,-87.8225
,Bloyer Field,Tomah,,USA,43.975278,-90.483333
MRK,Marco Islands,Marco Island Airport,,USA,25.9950278,-81.6725278
DRM,Drummond Island Airport,Drummond Island,,USA,46.0093114,-83.7439342
8M8,Garland Airport,Lewiston,,USA,44.8065278,-84.2761944
GDW,Gladwin Zettel Memorial Airport,Gladwin,,USA,43.9705893,-84.47502
24C,Lowell City Airport,Lowell,,USA,42.95392,-85.3439058
LWA,South Haven Area Regional Airport,South Haven,,USA,42.3511944,-86.2556389
06C,Schaumburg Regional,Schaumburg,,USA,41.9893408,-88.1012428
MFI,Marshfield Municipal Airport,Marshfield,,USA,44.6368797,-90.1893267
ISW,Alexander Field South Wood County Airport,Wisconsin Rapids,,USA,44.3606456,-89.8381412
CWI,Clinton Municipal,Clinton,,USA,41.83075,-90.3289722
BVY,Beverly Municipal Airport,Beverly,,USA,42.584141,-70.9161444
O27,Oakdale Airport,Oakdale,,USA,37.7563333,-120.8001944
POF,Poplar Bluff Municipal Airport,Poplar Bluff,,USA,36.77394444,-90.3248611
,Somerset Airport,Somerville,,USA,40.6259908,-74.6702433
EPM,Eastport Municipal Airport,Eastport,,USA,44.9101111,-67.0126944
EOK,Keokuk Municipal Airport,Keokuk,,USA,40.4599078,-91.4285011
ME5,Banks Airport,Swans Island,,USA,44.1653889,-68.4281667
,St. Paul Downtown Airport - Holman Field,St. Paul,,USA,44.9346225,-93.0603424
E51,Bagdad Airport,Bagdad,,USA,34.5958528,-113.170195
,Oconomowoc Airport,Oconomowoc,,USA,43.1388947,-88.4723206
E55,Ocean Ridge Airport,Gualala,,USA,38.8016111,-123.5306389
1G3,Kent State Airport,Kent,,USA,41.1513889,-81.4151111
,Bulter County Regional Airport,Hamilton,,USA,39.36375,-84.5219444
ZRA,Atlantic City Rail Terminal,Atlantic City NJ,,USA,39.3665,-74.442
ZSF,Springfield Amtrak Station,Springfield MA,,USA,42.106,-72.593054
XZK,Amherst Amtrak Station AMM,Amherst MA,,USA,42.375,-72.511389
,Cape May Ferry Terminal,Cape May NJ,,USA,38.9696286,-74.960918
,Lewes Ferry Terminal,Lewes DE,,USA,38.781655,-75.119534
,Bar Harbor Yarmouth Ferry Terminal,Bar Harbor ME,,USA,44.39917,-68.225
,St. Ignace Ferry Dock,St. Ignace MI,,USA,45.866405,-84.720254
,Mackinac Island Dock,Mackinac Island MI,,USA,45.848801,-84.615927
FLD,Fond Du Lac County Airport,Fond du Lac,,USA,43.7711667,-88.4884167
PCZ,Waupaca Municipal Airport,Waupaca,,USA,44.33325,-89.0197778
STE,Stevens Point Municipal Airport,Stevens Point,,USA,44.5451356,-89.5302844
ERY,Luce County Airport,Newberry,,USA,46.311199,-85.457298
25D,Forest Lake Airport,Forest Lake,,USA,45.2477456,-92.9943853
GQQ,Galion Municipal Airport,Galion,,USA,40.7533889,-82.7238056
CKV,Clarksville-Montgomery County Regional Airport,Clarksville,,USA,36.621944,-87.415
LPC,Lompoc Airport,Lompoc,,USA,34.6656,-120.4675
CTH,Chester County G O Carlson Airport,Coatesville,,USA,39.9789,-75.8654
LKP,Lake Placid Airport,Lake Placid,,USA,44.264444,-73.961944
NY9,Long Lake,Long Lake,,USA,43.9750617,-74.42044
WIH,Wishram Amtrak Station,Wishram,,USA,45.6576,-120.9664
AOH,Lima Allen County Airport,Lima,,USA,40.707478,-84.0270781
SSI,McKinnon Airport,Brunswick,,USA,31.1519722,-81.3910556
BFP,Beaver Falls,Beaver Falls,,USA,40.7724722,-80.3914444
F57,Seaplane Base,Winterhaven,,USA,28.0575,-81.7628056
GGE,Georgetown County Airport,Georgetown,,USA,33.3114018,-79.3203139
HDI,Hardwick Field Airport,Cleveland,,USA,35.2199994,-84.832369
2A0,Mark Anton Airport,Dayton,,USA,35.48625,-84.9310833
2G2,Jefferson County Airpark,Steubenville,,USA,40.3602179,-80.7008742
RNT,Renton,Renton,,USA,47.4931389,-122.21575
POC,Brackett Field,La Verne,,USA,34.0916667,-117.7817778
09J,Jekyll Island Airport,Jekyll Island,,USA,31.0744722,-81.4277778
CDK,CedarKey,Cedar Key,,USA,29.1342222,-83.0504722
CTY,Cross City,Cross City,,USA,29.6355278,-83.10475
CEU,Clemson,Clemson,,USA,34.6722222,-82.8858889
36U,Heber City Municipal Airport,Heber,,USA,40.4818056,-111.4288056
BEC,Beech Factory Airport,Wichita,,USA,37.6939167,-97.2149167
47A,Cherokee County Airport,Canton,,USA,34.3122175,-84.4221556
55J,Fernandina Beach Municipal Airport,Fernandina Beach,,USA,30.6118333,-81.4611944
,Tom B. David Field Airport,Calhoun,,USA,34.45545,-84.9391622
,Habersham County Airport,Cornelia,,USA,34.4998483,-83.5566701
GTU,Georgetown Municipal Airport,Georgetown,,USA,30.678809,-97.6793837
,Old Rhinebeck Airport,Rhinebeck,,USA,41.969833,-73.864555
SNY,Sidney Muni Airport,Sidney,,USA,41.10167,-102.985
,Luray Caverns Airport,Luray,,USA,38.666944,-78.500556
W13,Eagle's Nest Airport,Waynesboro,,USA,38.076944,-78.944167
,Kalaeloa,Kapolei,,USA,21.307222,-158.070278
,SFO Helicopter,Sausalito,,USA,37.87856,-122.512742
,Madison County Executive Airport,Huntsville,,USA,34.861,-86.558
JYO,Leesburg Executive Airport,Leesburg,,USA,39.078,-77.558
SDC,Williamson-Sodus Airport,Williamson,,USA,43.2347904,-77.119444
CLC,Clear Lake Metroport,Clear Lake City,,USA,29.5569,-95.137497
WBU,Boulder Municipal,Boulder,,USA,40.039444,-105.225833
PAO,Palo Alto Airport of Santa Clara County,Palo Alto,,USA,37.4611111,-122.1150556
FFZ,Mesa Falcon Field,Mesa,,USA,33.46080017,-111.7279968
P08,Coolidge Municipal Airport,Cooldige,,USA,32.93590164,-111.427002
P52,Cottonwood Airport,Cottonwood,,USA,34.72999954,-112.0350037
A39,Phoenix Regional Airport,Phoenix,,USA,32.99169922,-111.9209976
E25,Wickenburg Municipal Airport,Wickenburg,,USA,33.96889877,-112.7990036
PTK,Oakland Co. Intl,Pontiac,,USA,42.667,-83.35
EEN,Dillant Hopkins Airport,Keene,,USA,72.270833,42.898333
,Glasgow Industrial,Glasgow,,USA,48.4211069,-106.5277039
,Rensselaer Rail Station,Albany,,USA,42.641389,-73.741111
,Amtrak Station,Tacoma,,USA,47.242733,-122.42041
,Amtrak Station,Orlando,,USA,28.5259,-81.3813
,Denali Rail,Healy,,USA,63.7306,-148.9137333
EQY,Monroe Reqional Airport,Charlotte,,USA,35.01833,-80.62001
IOW,Iowa City Municipal Airport,Iowa City,,USA,41.639244,-91.546503
MWM,Windom Municipal Airport,Windom,,USA,43.9134017,-95.1094083
,Longview Ranch Airport,Longview,,USA,44.6608611,-119.6526153
ANP,Lee Airport,Annapolis,,USA,38.942778,-76.568333
PEQ,Pecos Municipal Airport,Pecos,,USA,31.3823889,-103.5107222
HBG,Hattiesburg Bobby L. Chain Municipal Airport,Hattiesburg,,USA,31.2649444,-89.2528889
YKN,Chan Gurney,Yankton,,USA,42.8711,-97.3969
SES,Selfield Airport,Selma Alabama,,USA,32.4404,-86.9522
1C9,Frazier Lake Airpark,Hollister,,USA,54.01333333,-124.7683333
HWD,Hayward Executive Airport,Hayward,,USA,37.65888889,-122.1216667
,Pittsburgh Amtrak,Pittsburgh,,USA,40.4406,-79.9961
,Raton Amtrak,Raton,,USA,36.9033,-104.4386
ARB,Ann Arbor Municipal Airport,Ann Arbor,,USA,42.132274,-83.444418
,Fairbanks Train Depot,Fairbanks,,USA,64.5109,-147.4445
,Denali Train Depot,Denali,,USA,63.43083,-150.31111
,Talkeetna Train Depot,Talkeetna,,USA,62.18934,-150.06177
,Anchorage Rail Depot,Anchorage,,USA,61.1318,-149.5326
,Whittier Port,Whittier,,USA,60.774174,-148.677649
ZTY,Boston Back Bay Station,Boston,,USA,42.3478,-71.075
,Niagara Falls Station,Niagara Falls,,USA,43.1135,-79.0318
4A7,Clayton County Tara Field,Hampton,,USA,33.389099,-84.332397
,Stapleton International Airport,Denver,,USA,39.779255,-104.88184
NGZ,NAS Alameda,Alameda,,USA,37.7861,-122.3186
,Buffalo Exchange Street Station,Buffalo,,USA,42.8783,-78.8738
ZWI,Wilmington Amtrak Station,Wilmington,,USA,39.736667,-75.551667
EKI,Elkhart Municipal,Elkhart,,USA,41.719444,-86.003333
,Salt Lake City Intermodal Hub,Salt Lake City,,USA,40.762778,-111.908333
,Sorrento Valley Station,San Diego,,USA,32.903,-117.225
,San Diego Union Station,San Diego,,USA,32.716944,-117.168611
IMM,Immokalee ,Immokalee ,,USA,26.433889,-81.401389
,Rancho San Simeon Airport,Cambria,,USA,35.607748,-121.110192
,Port Canaveral,Brevard County,,USA,28.4113919,-80.6081066
ZRZ,New Carrollton Rail Station,New Carrollton,,USA,38.948,-76.8719
,Walkersville Train Depot,Walkersville,,USA,39.48618333,-77.35475
,Seattle Pier 69 - Victoria Clipper,Seattle,,USA,47.613801,-122.354019
PTB,Dinwiddie County Airport,Petersburg,,USA,37.18375,-77.507388
SBM,Sheboygan County Memorial Airport,Sheboygan,,USA,43.7696,-87.851402
3D2,Ephraim-Gibraltar Airport,Ephraim,,USA,45.1354167,-87.1879444
,Walkersville Turnaround,Frederick,,USA,39.4449,-77.4012
MZJ,Pinal Airpark,Marana,,USA,32.509722,-111.325278
GEU,Glendale Municipal Airport,Glendale,,USA,33.5269167,-112.2951389
SAD,Safford Regional Airport,Safford,,USA,32.8533333,-109.6350833
,Fort Lauderdale-Hollywood International Airport Station at Dania Beach,Dania Beach,,USA,26.061933,-80.16565
,Deerfield Beach Station,Deerfield Beach,,USA,26.316944,-80.122222
SIK,Sikeston Memorial Municipal,Sikeston,,USA,36.8988889,-89.56175
L52,Oceano County Airport,Oceano,,USA,35.10147222,-120.6223611
GFL,Floyd Bennett Memorial Airport,Queensbury,,USA,43.341222,-73.610305
5B2,Saratoga County Airport,Ballston Spa,,USA,43.050722,-73.861638
K27,Burrello-Mechanicville Airport,Mechanicville,,USA,42.893133,-73.66845
CGC,Crystal River,Crystal River,,USA,28.8676111,-82.5741111
MTN,Martin State,Baltimore,,USA,39.3256667,-76.4137778
LHM,Lincoln Regional Airport Karl Harder Field,Lincoln,,USA,38.9091667,-121.3513333
FZI,Fostoria Metropolitan Airport,Fostoria,,USA,41.1908333,-83.3930833
IZG,Eastern Slopes Regional,Fryeburg,,USA,43.9911389,-70.9478889
,Coral Creek,Placida,,USA,26.8537417,-82.2526028
NEW,Lakefront,New Orleans,,USA,30.0424167,-90.02825
COE,Pappy Boyington,Coeur d'Alene,,USA,47.7743056,-116.8195833
BMT,Beaumont Municipal,Beaumont,,USA,30.0702044,-94.2150967
DNV,Vermilion Regional,Danville,,USA,40.1996944,-87.5955278
,Dearborn Amtrak Station,Dearborn,,USA,42.312222,-83.198611
COI,Merritt Island Airport,Cocoa,,USA,28.3416111,-80.6854722
X59,Valkaria Municipal,Valkaria,,USA,27.9608611,-80.5583333
TIX,Space Coast Reg'l Airport,Titusville,,USA,28.5148,-80.7992278
X26,Sebastian Municipal,Sebastian,,USA,27.81325,-80.4955833
1H2,Effingham Memorial Airport,Effingham,,USA,39.07,-88.534
AAP,Andrau Airport,Houston,,USA,29.43,-95.35
FCM,Flying Cloud Airport,Eden Prairie,,USA,44.4938,-93.2726
OJC,Johnson County Airport,Olathe,,USA,38.5051,-94.4415
,Marshall Aiport,Marshall,,USA,44.4469,95.7883
X04,Apopka,Orlando,,USA,28.707222,-81.581667
OQN,Brandywine Airport,West Goshen Township,,USA,39.5924,-75.3455
MNZ,Manassas,Manassas,,USA,38.721389,-77.515556
,Texas Gulf Coast Regional,Angleton,,USA,29.1086389,-95.4620833
,Johnstown Amtrak,Johnstown,,USA,40.3297222,-78.9222222
,Harvey Field S43,Snohomish WA,,USA,47.904451,-122.102529
UT3,Hite Airport,Hanksville,,USA,37.8916547,-110.3840289
,Santa Barbara Train Station,Santa Barbara,,USA,34.413611,-119.691667
,Eugene Amtrak Station,Eugene,,USA,44.055062,-123.092372
2H0,Shelby County Airport,Shelbyville,,USA,39.410556,-88.845556
,Illinois Terminal,Champaign,,USA,40.1155,-88.2411
,Mattoon Amtrak,Mattoon,,USA,39.4828,-88.3759
1G4,Grand Canyon West Airport,Peach Springs,,USA,35.899904,-113.815674
,Boston North Station,Boston,,USA,42.366235,-71.061122
,Rockport Station,Rockport,,USA,42.6558328,-70.6266667
,Salem Station,Salem,,USA,42.5249995,-70.8958333
,Salem Ferry Dock,Salem,,USA,42.522421,-70.881607
,Long Wharf,Boston,,USA,42.36024,-71.048105
,Joliet Union Station,Joliet,,USA,41.5244,-88.0795
,Laraway Road,New Lenox,,USA,41.485,-87.9596
,Lasalle Station,Chicago,,USA,41.875,-87.632
,Norfolk Station,Norfolk,,USA,36.843233,-76.275952
,Gloucester Station,Gloucester,,USA,42.61666667,-70.66833333
,Johnstown Amtrak,Johnstown,,USA,40.3296,-78.9219
,Enumclaw Airport,Enumclaw,,USA,47.1956569,-122.0220561
9G1,Rock Airport,Tarentum,,USA,40.6035463,-79.8261189
,Grand Central Terminal,New York,,USA,40.752726,-73.977229
,Tremont,New York,,USA,40.847301,-73.89955
2B2,Plum Island Airport,Newburyport,,USA,42.7953611,-70.8394444
,Brooks Camp,Brooks Camp,,USA,58.556539,-155.777311
LKK,Kulik Lake Airport,Kulik Lake,,USA,58.96591,-155.108089
PTA,Port Alsworth Airport,Port alsworth,,USA,60.208281,-154.306586
FDW,Fairfield County Airport,Winnsboro,,USA,34.315472,-81.108806
DAW,Skyhaven Airport,Rochester,,USA,43.2840556,-70.9292778
PRL,Port Oceanic Airport,Port Oceanic,,USA,60.2083333,-147.8194444
EWK,Newton City-County Airport,Newton,,USA,38.0570785,-97.2752278
TZR,Bolton Field,Columbus,,USA,39.901111,-83.136944
W04,Ocean Shores Municipal,Ocean Shores,,USA,46.5995,-124.0854
55S,Packwood,Packwood,,USA,46.3625,-121.4067
FBR,Fort Bridger,Fort Bridger,,USA,41.236,-110.2436
S40,Prosser,Prosser,,USA,46.128,-119.4773
CLS,Chehalis-Centralia,Chehalis,,USA,46.4062,-122.5897
M94,Desert Aire,Mattawa,,USA,46.4124,-119.5518
S30,Lebanon State,Lebanon,,USA,44.3179,-122.5577
EVW,Evanston-Uinta CO Burns Fld,Evanston,,USA,41.1649,-111.0208
K83,Sabetha Municipal,Sabetha,,USA,39.5425,-95.4677
LRO,Mount Pleasant Regional-Faison Field,Mount Pleasant,,USA,32.5387,-79.4697
ACJ,Jimmy Carter Regional,Americus,,USA,32.0665,-84.1133
EUF,Weedon Field,Eufala,,USA,31.5708,-85.0774
6J4,Saluda County,Saluda,,USA,33.5561,-81.4768
MQI,Dare County Regional,Manteo,,USA,35.5514,-75.4173
AUO,Auburn University Regional,Auburn,,USA,32.3691,-85.2604
CZG,Tri-Cities,Endicott,,USA,42.0471,-76.0578
,Kendal Glider Port,Kendall,,USA,25.603889,-80.585556
EKY,Bessemer,Bessemer,,USA,33.1876,-86.5558
A50,Colorado Springs East,Ellicott,,USA,38.87,-104.41
,Buffalo-Depew Station,Depew,,USA,42.9074,-78.7266
,South Bend Station,South Bend,,USA,41.678,-86.2876
,Carroll Avenue NICTD Station,Michigan City,,USA,41.7133,-86.8677
,Chicago Millennium Station,Chicago,,USA,41.8837,-87.623
,St. Louis Gateway Transportation Center,St. Louis,,USA,38.6239,-90.2039
,Kansas City Union Station,Kansas City,,USA,39.0865,-94.586
,Alvarado Transportation Center,Albuquerque,,USA,35.0826,-106.6474
,San Francisco 4th and King St. Station,San Francisco,,USA,37.7763884,-122.3944444
,Oakland Jack London Square Station,Oakland,,USA,37.7935,-122.2719
,Downtown Mountain View Station,Mountain View,,USA,37.3943934,-122.075872
,San Mateo Station,San Mateo,,USA,37.5683328,-122.3241667
,Sunnyvale Station,Sunnyvale,,USA,37.3786106,-122.0308333
,Millbrae Intermodal Terminal,San Mateo,,USA,37.6002772,-122.3866667
,Cleveland Greyhound Station,Cleveland,,USA,41.5034,-81.6822
MIC,Crystal Airport,Crystal,,USA,45.0343,-93.2114
23M,Clarke CO,Quitman,,USA,32.0517,-88.4434
DBN,W H Barron Field,Dublin,,USA,32.3388,-82.591
,Port Authority,New York,,USA,40.756667,-73.991111
,Bus Terminal,Allentown,,USA,40.605604,-75.462384
,Binghamton Bus Terminal,Binghamton,,USA,42.101438,-75.910431
,William F. Walsh Regional Transportation Center,Syracuse,,USA,43.0767,-76.1691
UCA,Union Station,Utica,,USA,43.104167,-75.223333
,Clinton Bus Stop,Clinton,,USA,43.048889,-75.380278
,Susquehanna Trailways Terminal,Williamsport,,USA,41.239395,-77.000245
,Martz Trailways Bus Terminal,Wilkes-Barre,,USA,41.243958,-75.882365
,Hazelton Bus Station,Hazelton,,USA,40.954055,-75.976102
,Lewisburg Bus Stop,Lewisburg,,USA,40.963889,-76.888056
,Madison NJT Station,Madison,,USA,40.757028,-74.415194
,Maplewood NJT Station,Maplewood,,USA,40.731111,-74.275556
,Harrisburg Transportation Center,Harrisburg,,USA,40.26223,-76.878709
,Metro-North Station,Poughkeepsie,,USA,41.706516,-73.937774
,Port Everglades,Fort Lauderdale,,USA,26.087679,-80.115942
,Summit NJT Station,Summit,,USA,40.716556,-74.35775
CVO,Corvallis Muni,Corvallis,,USA,44.5067,-123.2915
,Martz Trailways,Scranton,,USA,41.410253,-75.670297
,New Brunswick Station,New Brunswick,,USA,40.496432,-74.446447
,Trenton Transit Center,Trenton,,USA,40.218839,-74.754279
,Holmesburg Jct Station,Philadelphia,,USA,40.032679,-75.023718
,White Plains,White Plains,,USA,41.032549,-73.775069
,Southeast,Southeast,,USA,41.413179,-73.623551
,B Street Cruise Terminal,San Diego,,USA,32.716861,-117.174296
,Ferry Terminal,Anacortes,,USA,48.50728,-122.677596
,Ferry Dock,Friday Harbor,,USA,48.535673,-123.014044
,Morristown Station,Morristown,,USA,40.796957,-74.473834
,Port of Seattle,Seattle,,USA,47.609178,-122.350605
,Ferry Terminal,Whittier,,USA,60.776566,-148.683367
,Ferry Terminal,Valdez,,USA,61.123976,-146.365309
,Ferry Dock,Bainbridge Island,,USA,47.622237,-122.509362
CWT,Chatsworth Station,Chatsworth,,USA,34.256944,-118.598889
DHB,Deer Harbor Seaplane,Deer Harbor,,USA,48.618397,-123.00596
OLT,San Diego Old Town Transit Center,San Diego,,USA,32.7552,-117.1995
SJU,Luis Munoz Marin Intl,San Juan,,USA,18.439417,-66.001833
STT,Cyril E King,St. Thomas,,USA,18.337306,-64.973361
